{
"type": "FeatureCollection",
"name": "asi_aereo",
"crs": { "type": "name", "properties": { "name": "urn:ogc:def:crs:OGC:1.3:CRS84" } },
"features": [
{ "type": "Feature", "properties": { "Name": "Ruta sin título", "OBSERVACIO": "TENDIDO ASI POLIGONO 20", "longitud_m": 1190.9469951497758 }, "geometry": { "type": "LineString", "coordinates": [ [ -58.442308170434963, -34.572706385413277 ], [ -58.445529366463177, -34.570845417070103 ], [ -58.447502196035629, -34.572394297735471 ], [ -58.452832389334347, -34.569570503278463 ] ] } },
{ "type": "Feature", "properties": { "Name": "Ruta sin título", "OBSERVACIO": "TENDIDO ASI POLIGONO 20", "longitud_m": 27.365560819419553 }, "geometry": { "type": "LineString", "coordinates": [ [ -58.442318620124439, -34.572695268295043 ], [ -58.442107161159647, -34.572521315492523 ] ] } },
{ "type": "Feature", "properties": { "Name": "Ruta sin título", "OBSERVACIO": "TENDIDO ASI POLIGONO 20", "longitud_m": 37.946947976926772 }, "geometry": { "type": "LineString", "coordinates": [ [ -58.451348221983118, -34.570492889460823 ], [ -58.451760989899498, -34.57051370065949 ] ] } },
{ "type": "Feature", "properties": { "Name": "Ruta sin título", "OBSERVACIO": "TENDIDO ASI POLIGONO 20", "longitud_m": 80.271969477711735 }, "geometry": { "type": "LineString", "coordinates": [ [ -58.452827983292053, -34.569582182659687 ], [ -58.452340645006323, -34.570183099366503 ] ] } },
{ "type": "Feature", "properties": { "Name": "Ruta sin título", "OBSERVACIO": "TENDIDO ASI POLIGONO 20", "longitud_m": 130.67553176585878 }, "geometry": { "type": "LineString", "coordinates": [ [ -58.451343143605321, -34.570491795227568 ], [ -58.4519991182054, -34.571537350684878 ] ] } },
{ "type": "Feature", "properties": { "Name": "Ruta sin título", "OBSERVACIO": "TENDIDO ASI POLIGONO 20", "longitud_m": 198.81963483003551 }, "geometry": { "type": "LineString", "coordinates": [ [ -58.449848799261026, -34.563743589251452 ], [ -58.451981716854, -34.564057943833532 ] ] } },
{ "type": "Feature", "properties": { "Name": "Ruta sin título", "OBSERVACIO": "TENDIDO ASI POLIGONO 20", "longitud_m": 344.28085279979859 }, "geometry": { "type": "LineString", "coordinates": [ [ -58.440879226378961, -34.571973152461958 ], [ -58.44295327041516, -34.569386959074087 ] ] } },
{ "type": "Feature", "properties": { "Name": "Ruta sin título", "OBSERVACIO": "TENDIDO ASI POLIGONO 20", "longitud_m": 120.41500669118719 }, "geometry": { "type": "LineString", "coordinates": [ [ -58.443887835883409, -34.5703438480244 ], [ -58.444509273686968, -34.571299891137677 ] ] } },
{ "type": "Feature", "properties": { "Name": "Ruta sin título", "OBSERVACIO": "TENDIDO ASI POLIGONO 20", "longitud_m": 24.186251806670427 }, "geometry": { "type": "LineString", "coordinates": [ [ -58.443313207585049, -34.569695721694188 ], [ -58.443367167946562, -34.569482313398929 ] ] } },
{ "type": "Feature", "properties": { "Name": "FO-25-1439039", "OBSERVACIO": "TENDIDO ASI POLIGONO 20", "longitud_m": 155.65730218809364 }, "geometry": { "type": "LineString", "coordinates": [ [ -58.440862439829033, -34.57068749462325 ], [ -58.44040602264058, -34.572038917647241 ] ] } },
{ "type": "Feature", "properties": { "Name": "FO-25-1439039 b", "OBSERVACIO": "TENDIDO ASI POLIGONO 20", "longitud_m": 111.00972579629436 }, "geometry": { "type": "LineString", "coordinates": [ [ -58.450509239329762, -34.564140301459318 ], [ -58.451498252618222, -34.564716495011709 ] ] } },
{ "type": "Feature", "properties": { "Name": "T04-48FO", "OBSERVACIO": "TENDIDO ASI POLIGONO 19", "longitud_m": 250.45542055337853 }, "geometry": { "type": "LineString", "coordinates": [ [ -58.42566200454003, -34.582105820808422 ], [ -58.425184321275751, -34.581558278528647 ], [ -58.424562953636062, -34.58087632159274 ], [ -58.424054903175403, -34.580281101213963 ] ] } },
{ "type": "Feature", "properties": { "Name": "T03-48FO", "OBSERVACIO": "TENDIDO ASI POLIGONO 19", "longitud_m": 1962.1964633397192 }, "geometry": { "type": "LineString", "coordinates": [ [ -58.423976413220807, -34.58035306679939 ], [ -58.424079998181057, -34.580278015263083 ], [ -58.424632633582711, -34.580929655202667 ], [ -58.422645558732867, -34.582341056890577 ], [ -58.419762345798368, -34.584436623865962 ], [ -58.419552496768297, -34.584456023299268 ], [ -58.419298863987109, -34.584644232055012 ], [ -58.418007169376828, -34.5855811264084 ], [ -58.41745924924394, -34.585981865242942 ], [ -58.415373027124197, -34.584737663795707 ], [ -58.414758974580707, -34.584285458245297 ], [ -58.41435206475542, -34.584026719739242 ], [ -58.413955308132152, -34.584329124240917 ], [ -58.413557367280603, -34.584618845419968 ], [ -58.413279209270982, -34.584778047240377 ], [ -58.409000411113823, -34.587652244507083 ] ] } },
{ "type": "Feature", "properties": { "Name": "T01-48FO", "OBSERVACIO": "TENDIDO ASI POLIGONO 19", "longitud_m": 635.50227200265465 }, "geometry": { "type": "LineString", "coordinates": [ [ -58.400953235545231, -34.603469098026572 ], [ -58.403546386543518, -34.60343078110828 ], [ -58.40507069945442, -34.603367802677788 ], [ -58.406296794520962, -34.603197299894511 ], [ -58.406403238146353, -34.603593961488038 ], [ -58.406619435418207, -34.604463623321642 ] ] } },
{ "type": "Feature", "properties": { "Name": "T02-24FO", "OBSERVACIO": "TENDIDO ASI POLIGONO 19", "longitud_m": 1388.8127058126536 }, "geometry": { "type": "LineString", "coordinates": [ [ -58.405334363971917, -34.604549521793437 ], [ -58.404646191527171, -34.601475343178826 ], [ -58.40297951227366, -34.596146836509817 ], [ -58.401385346805718, -34.592487979961852 ] ] } },
{ "type": "Feature", "properties": { "Name": "Ruta sin título", "OBSERVACIO": "TENDIDO ASI POLIGONO 19", "longitud_m": 215.89813611054109 }, "geometry": { "type": "LineString", "coordinates": [ [ -58.408072300894979, -34.604095610399057 ], [ -58.406685127646931, -34.60429636481453 ], [ -58.406883857251863, -34.605060673109662 ] ] } },
{ "type": "Feature", "properties": { "Name": "Ruta sin título", "OBSERVACIO": "TENDIDO ASI POLIGONO 19", "longitud_m": 320.05498159411553 }, "geometry": { "type": "LineString", "coordinates": [ [ -58.40806237089587, -34.604130492578257 ], [ -58.405547507723711, -34.604454903882271 ], [ -58.405749371012668, -34.60521738638748 ] ] } },
{ "type": "Feature", "properties": { "Name": "Ruta sin título", "OBSERVACIO": "TENDIDO ASI POLIGONO 19", "longitud_m": 818.23409264736711 }, "geometry": { "type": "LineString", "coordinates": [ [ -58.416312175770663, -34.581668945192384 ], [ -58.411317269672139, -34.582020471906297 ], [ -58.41435018599261, -34.584055080726984 ] ] } },
{ "type": "Feature", "properties": { "Name": "Ruta sin título", "OBSERVACIO": "TENDIDO ASI POLIGONO 19", "longitud_m": 430.72970105512223 }, "geometry": { "type": "LineString", "coordinates": [ [ -58.401081316368682, -34.599320157476157 ], [ -58.400716534039688, -34.598030852168911 ], [ -58.403365639521937, -34.597586844265763 ], [ -58.403277303722639, -34.597271671485473 ] ] } },
{ "type": "Feature", "properties": { "Name": "Ruta sin título", "OBSERVACIO": "TENDIDO ASI POLIGONO 19", "longitud_m": 714.51902708391617 }, "geometry": { "type": "LineString", "coordinates": [ [ -58.4003616024251, -34.603421104117771 ], [ -58.401137889423637, -34.599520805476637 ], [ -58.402486017891228, -34.599022326845407 ], [ -58.402239739559711, -34.598305101173111 ], [ -58.402072517020059, -34.597802276777493 ] ] } },
{ "type": "Feature", "properties": { "Name": "Ruta sin título", "OBSERVACIO": "TENDIDO ASI POLIGONO 19", "longitud_m": 13.81443550446288 }, "geometry": { "type": "LineString", "coordinates": [ [ -58.402418823752392, -34.598357138886968 ], [ -58.402274509309073, -34.598392728691152 ] ] } },
{ "type": "Feature", "properties": { "Name": "Ruta sin título", "OBSERVACIO": "TENDIDO ASI POLIGONO 19", "longitud_m": 319.389584782329 }, "geometry": { "type": "LineString", "coordinates": [ [ -58.399642190660053, -34.598196742543671 ], [ -58.403051002897179, -34.597610516074063 ] ] } },
{ "type": "Feature", "properties": { "Name": "Ruta sin título", "OBSERVACIO": "TENDIDO ASI POLIGONO 19", "longitud_m": 12.687683922710727 }, "geometry": { "type": "LineString", "coordinates": [ [ -58.404494595868407, -34.600359067173073 ], [ -58.404513737916027, -34.600245795534192 ] ] } },
{ "type": "Feature", "properties": { "Name": "Ruta sin título", "OBSERVACIO": "TENDIDO ASI POLIGONO 19", "longitud_m": 68.332844037817125 }, "geometry": { "type": "LineString", "coordinates": [ [ -58.404824139802201, -34.603252000278459 ], [ -58.404082010169567, -34.603305666869687 ] ] } },
{ "type": "Feature", "properties": { "Name": "Ruta sin título", "OBSERVACIO": "TENDIDO ASI POLIGONO 19", "longitud_m": 438.07339787459119 }, "geometry": { "type": "LineString", "coordinates": [ [ -58.404989848093237, -34.596926181176428 ], [ -58.406587709582077, -34.600647561201278 ] ] } },
{ "type": "Feature", "properties": { "Name": "Ruta sin título", "OBSERVACIO": "TENDIDO ASI POLIGONO 19", "longitud_m": 10.899353996648035 }, "geometry": { "type": "LineString", "coordinates": [ [ -58.40515895460188, -34.602878118638692 ], [ -58.405183867859719, -34.602782051059329 ] ] } },
{ "type": "Feature", "properties": { "Name": "Ruta sin título", "OBSERVACIO": "TENDIDO ASI POLIGONO 19", "longitud_m": 82.59092374007551 }, "geometry": { "type": "LineString", "coordinates": [ [ -58.40109030506494, -34.599328293680372 ], [ -58.400284766141183, -34.598995724816923 ] ] } },
{ "type": "Feature", "properties": { "Name": "Ruta sin título", "OBSERVACIO": "TENDIDO ASI POLIGONO 19", "longitud_m": 139.95454743867413 }, "geometry": { "type": "LineString", "coordinates": [ [ -58.420130503879321, -34.582550597045589 ], [ -58.421409844184772, -34.583237687705697 ] ] } },
{ "type": "Feature", "properties": { "Name": "Ruta sin título", "OBSERVACIO": "TENDIDO ASI POLIGONO 19", "longitud_m": 814.9185183779432 }, "geometry": { "type": "LineString", "coordinates": [ [ -58.409120677545452, -34.587533058382668 ], [ -58.414343576210364, -34.584053605675102 ], [ -58.416071082209349, -34.585147519506947 ] ] } },
{ "type": "Feature", "properties": { "Name": "Ruta sin título", "OBSERVACIO": "TENDIDO ASI POLIGONO 19", "longitud_m": 541.56937966378484 }, "geometry": { "type": "LineString", "coordinates": [ [ -58.40742030281767, -34.593790733106523 ], [ -58.40727193047865, -34.593497408015828 ], [ -58.405210527426902, -34.59174636341848 ], [ -58.404245541962233, -34.592495344096811 ], [ -58.403111966054901, -34.592911705514069 ] ] } },
{ "type": "Feature", "properties": { "Name": "Ruta sin título", "OBSERVACIO": "TENDIDO ASI POLIGONO 19", "longitud_m": 418.6234616968863 }, "geometry": { "type": "LineString", "coordinates": [ [ -58.42549289480921, -34.578701746997723 ], [ -58.42196309560584, -34.581092800363869 ] ] } },
{ "type": "Feature", "properties": { "Name": "Ruta sin título", "OBSERVACIO": "TENDIDO ASI POLIGONO 19", "longitud_m": 324.69363146027047 }, "geometry": { "type": "LineString", "coordinates": [ [ -58.42366686900111, -34.58161166031266 ], [ -58.424609861857761, -34.580935170963073 ], [ -58.425519772030597, -34.581958512133028 ], [ -58.425122843091437, -34.582489437844742 ] ] } },
{ "type": "Feature", "properties": { "Name": "Ruta sin título", "OBSERVACIO": "TENDIDO ASI POLIGONO 19", "longitud_m": 27.978901908510583 }, "geometry": { "type": "LineString", "coordinates": [ [ -58.424005158692538, -34.581527449369062 ], [ -58.423915699008688, -34.581458658128589 ], [ -58.42403844686087, -34.581346629918777 ] ] } },
{ "type": "Feature", "properties": { "Name": "Ruta sin título", "OBSERVACIO": "TENDIDO ASI POLIGONO 19", "longitud_m": 31.441552710987501 }, "geometry": { "type": "LineString", "coordinates": [ [ -58.424886119814701, -34.581239579202901 ], [ -58.42468409820524, -34.581468518356687 ] ] } },
{ "type": "Feature", "properties": { "Name": "Ruta sin título", "OBSERVACIO": "TENDIDO ASI POLIGONO 19", "longitud_m": 289.47552872461324 }, "geometry": { "type": "LineString", "coordinates": [ [ -58.399906082145939, -34.596825907866723 ], [ -58.402821063711848, -34.595826507475877 ] ] } },
{ "type": "Feature", "properties": { "Name": "Ruta sin título", "OBSERVACIO": "TENDIDO ASI POLIGONO 19", "longitud_m": 315.10648080408532 }, "geometry": { "type": "LineString", "coordinates": [ [ -58.39897112036136, -34.595348145344033 ], [ -58.40225724375555, -34.594521123710969 ] ] } },
{ "type": "Feature", "properties": { "Name": "Ruta sin título", "OBSERVACIO": "TENDIDO ASI POLIGONO 19", "longitud_m": 143.24794730740763 }, "geometry": { "type": "LineString", "coordinates": [ [ -58.400748740407387, -34.598018570712057 ], [ -58.400360446488421, -34.596767828926303 ] ] } },
{ "type": "Feature", "properties": { "Name": "Ruta sin título", "OBSERVACIO": "TENDIDO ASI POLIGONO 19", "longitud_m": 105.19862435503414 }, "geometry": { "type": "LineString", "coordinates": [ [ -58.403456744067952, -34.59180516111163 ], [ -58.404264395506893, -34.592478352081713 ] ] } },
{ "type": "Feature", "properties": { "Name": "Ruta sin título", "OBSERVACIO": "TENDIDO ASI POLIGONO 19", "longitud_m": 56.833942812973717 }, "geometry": { "type": "LineString", "coordinates": [ [ -58.403454313017519, -34.591812234509561 ], [ -58.403649511495694, -34.592298465233227 ] ] } },
{ "type": "Feature", "properties": { "Name": "Ruta sin título", "OBSERVACIO": "TENDIDO ASI POLIGONO 19", "longitud_m": 35.999380352505113 }, "geometry": { "type": "LineString", "coordinates": [ [ -58.40618484733254, -34.59258453280453 ], [ -58.405897873234082, -34.592805868276947 ] ] } },
{ "type": "Feature", "properties": { "Name": "Ruta sin título", "OBSERVACIO": "TENDIDO ASI POLIGONO 19", "longitud_m": 17.791696434724308 }, "geometry": { "type": "LineString", "coordinates": [ [ -58.405908110922049, -34.592800229486933 ], [ -58.406037990822483, -34.592919335777857 ] ] } },
{ "type": "Feature", "properties": { "Name": "Ruta sin título", "OBSERVACIO": "TENDIDO ASI POLIGONO 19", "longitud_m": 25.281007335306235 }, "geometry": { "type": "LineString", "coordinates": [ [ -58.404359608273062, -34.592153960151727 ], [ -58.4046309374137, -34.592193815087768 ] ] } },
{ "type": "Feature", "properties": { "Name": "Ruta sin título", "OBSERVACIO": "TENDIDO ASI POLIGONO 19", "longitud_m": 456.29586424638632 }, "geometry": { "type": "LineString", "coordinates": [ [ -58.414752678849538, -34.589902125234921 ], [ -58.41368595051491, -34.588765900997259 ], [ -58.41460880395978, -34.588134240622033 ], [ -58.416140977634768, -34.587024993002771 ] ] } },
{ "type": "Feature", "properties": { "Name": "Ruta sin título", "OBSERVACIO": "TENDIDO ASI POLIGONO 19", "longitud_m": 21.474618493948704 }, "geometry": { "type": "LineString", "coordinates": [ [ -58.416131191637177, -34.587036777178987 ], [ -58.416049572098437, -34.586855345457117 ] ] } },
{ "type": "Feature", "properties": { "Name": "Ruta sin título", "OBSERVACIO": "TENDIDO ASI POLIGONO 19", "longitud_m": 26.559285201944114 }, "geometry": { "type": "LineString", "coordinates": [ [ -58.40942004297672, -34.587324576190937 ], [ -58.409205427792593, -34.587163898529873 ] ] } },
{ "type": "Feature", "properties": { "Name": "Ruta sin título", "OBSERVACIO": "TENDIDO ASI POLIGONO 19", "longitud_m": 101.01932514560289 }, "geometry": { "type": "LineString", "coordinates": [ [ -58.404480330984249, -34.596130879024713 ], [ -58.404993123699377, -34.596936755930727 ] ] } },
{ "type": "Feature", "properties": { "Name": "Ruta sin título", "OBSERVACIO": "TENDIDO ASI POLIGONO 19", "longitud_m": 33.532835905322059 }, "geometry": { "type": "LineString", "coordinates": [ [ -58.404488322674602, -34.59612835651135 ], [ -58.40442760973859, -34.59583027546195 ] ] } },
{ "type": "Feature", "properties": { "Name": "Ruta sin título", "OBSERVACIO": "TENDIDO ASI POLIGONO 19", "longitud_m": 39.605056309003928 }, "geometry": { "type": "LineString", "coordinates": [ [ -58.40447495464808, -34.59613340045788 ], [ -58.404327620356689, -34.59646898556727 ] ] } },
{ "type": "Feature", "properties": { "Name": "Ruta sin título", "OBSERVACIO": "TENDIDO ASI POLIGONO 19", "longitud_m": 33.190436746857685 }, "geometry": { "type": "LineString", "coordinates": [ [ -58.405146134062143, -34.596632726334597 ], [ -58.40497099311176, -34.596894529745811 ] ] } },
{ "type": "Feature", "properties": { "Name": "Ruta sin título", "OBSERVACIO": "TENDIDO ASI POLIGONO 19", "longitud_m": 62.164599646616693 }, "geometry": { "type": "LineString", "coordinates": [ [ -58.416033635500597, -34.587707283228617 ], [ -58.415674287636179, -34.587390962017182 ], [ -58.41554379336533, -34.587456671871337 ] ] } },
{ "type": "Feature", "properties": { "Name": "Ruta sin título", "OBSERVACIO": "TENDIDO ASI POLIGONO 19", "longitud_m": 9.7066737508052512 }, "geometry": { "type": "LineString", "coordinates": [ [ -58.418005519597813, -34.585517994106759 ], [ -58.418043683100009, -34.585599603537368 ] ] } },
{ "type": "Feature", "properties": { "Name": "Ruta sin título", "OBSERVACIO": "TENDIDO ASI POLIGONO 19", "longitud_m": 38.193333137931994 }, "geometry": { "type": "LineString", "coordinates": [ [ -58.41641197205233, -34.581995870126789 ], [ -58.416312320144371, -34.581661588794958 ] ] } },
{ "type": "Feature", "properties": { "Name": "Ruta sin título", "OBSERVACIO": "TENDIDO ASI POLIGONO 19", "longitud_m": 15.687775854585855 }, "geometry": { "type": "LineString", "coordinates": [ [ -58.413882648307982, -34.583745970773393 ], [ -58.413893541881549, -34.583604841356753 ] ] } },
{ "type": "Feature", "properties": { "Name": "Ruta sin título", "OBSERVACIO": "TENDIDO ASI POLIGONO 19", "longitud_m": 89.876987041736754 }, "geometry": { "type": "LineString", "coordinates": [ [ -58.414315714171252, -34.581823296053443 ], [ -58.413879067310283, -34.581098046172087 ] ] } },
{ "type": "Feature", "properties": { "Name": "Ruta sin título", "OBSERVACIO": "TENDIDO ASI POLIGONO 19", "longitud_m": 39.288235545755533 }, "geometry": { "type": "LineString", "coordinates": [ [ -58.416406137573603, -34.584922693407762 ], [ -58.416072158140963, -34.585144358121333 ] ] } },
{ "type": "Feature", "properties": { "Name": "Ruta sin título", "OBSERVACIO": "TENDIDO ASI POLIGONO 19", "longitud_m": 39.910890428961466 }, "geometry": { "type": "LineString", "coordinates": [ [ -58.416397922007008, -34.584925355588368 ], [ -58.416072523108959, -34.584686583574012 ] ] } },
{ "type": "Feature", "properties": { "Name": "Ruta sin título", "OBSERVACIO": "TENDIDO ASI POLIGONO 19", "longitud_m": 134.09104967667028 }, "geometry": { "type": "LineString", "coordinates": [ [ -58.424616714168486, -34.5809499505405 ], [ -58.423748715567228, -34.579977481888989 ] ] } },
{ "type": "Feature", "properties": { "Name": "Ruta sin título", "OBSERVACIO": "TENDIDO ASI POLIGONO 19", "longitud_m": 164.71868362280037 }, "geometry": { "type": "LineString", "coordinates": [ [ -58.418933513274823, -34.586883621628957 ], [ -58.418039966699283, -34.585595730500387 ] ] } }
]
}
