{
"type": "FeatureCollection",
"name": "poligonos_protocolo",
"crs": { "type": "name", "properties": { "name": "urn:ogc:def:crs:OGC:1.3:CRS84" } },
"features": [
{ "type": "Feature", "properties": { "ZONA": "POLIGONO 16" }, "geometry": { "type": "Polygon", "coordinates": [ [ [ -58.391519, -34.622702 ], [ -58.390338, -34.634179 ], [ -58.374594, -34.626724 ], [ -58.368028, -34.62713 ], [ -58.363125, -34.625139 ], [ -58.362679, -34.624675 ], [ -58.3643, -34.623598 ], [ -58.365952, -34.621471 ], [ -58.391519, -34.622702 ] ] ] } },
{ "type": "Feature", "properties": { "ZONA": "POLIGONO 15" }, "geometry": { "type": "Polygon", "coordinates": [ [ [ -58.391572, -34.614791 ], [ -58.391465, -34.622764 ], [ -58.368414, -34.621691 ], [ -58.369288, -34.613542 ], [ -58.391572, -34.614791 ] ] ] } },
{ "type": "Feature", "properties": { "ZONA": "POLIGONO 14" }, "geometry": { "type": "Polygon", "coordinates": [ [ [ -58.3919583, -34.6079828 ], [ -58.391572, -34.614791 ], [ -58.369258, -34.613607 ], [ -58.369482, -34.609069 ], [ -58.369133, -34.60665 ], [ -58.370037, -34.606491 ], [ -58.3807468, -34.6071888 ], [ -58.3811571, -34.607277 ], [ -58.3919583, -34.6079828 ] ] ] } },
{ "type": "Feature", "properties": { "ZONA": "POLIGONO 13" }, "geometry": { "type": "Polygon", "coordinates": [ [ [ -58.371289, -34.598265 ], [ -58.392763, -34.599621 ], [ -58.3919583, -34.6079828 ], [ -58.3811571, -34.607277 ], [ -58.3807468, -34.6071888 ], [ -58.37049, -34.599938 ], [ -58.371289, -34.598265 ] ] ] } },
{ "type": "Feature", "properties": { "ZONA": "POLIGONO 12" }, "geometry": { "type": "Polygon", "coordinates": [ [ [ -58.383633, -34.587362 ], [ -58.388, -34.591709 ], [ -58.387286, -34.594644 ], [ -58.386927, -34.599285 ], [ -58.363173, -34.597836 ], [ -58.364481, -34.593745 ], [ -58.3680371, -34.5902519 ], [ -58.375233, -34.592395 ], [ -58.383633, -34.587362 ] ] ] } },
{ "type": "Feature", "properties": { "ZONA": "POLIGONO 17" }, "geometry": { "type": "Polygon", "coordinates": [ [ [ -58.369133, -34.60665 ], [ -58.369557, -34.609087 ], [ -58.368527, -34.621555 ], [ -58.36607, -34.621572 ], [ -58.364342, -34.623673 ], [ -58.36269, -34.624759 ], [ -58.355963, -34.617581 ], [ -58.363109, -34.597766 ], [ -58.371289, -34.598265 ], [ -58.37049, -34.599938 ], [ -58.370037, -34.606491 ], [ -58.369133, -34.60665 ] ] ] } },
{ "type": "Feature", "properties": { "ZONA": "POLIGONO 2" }, "geometry": { "type": "Polygon", "coordinates": [ [ [ -58.393015, -34.599598 ], [ -58.3899535, -34.599474 ], [ -58.386927, -34.599285 ], [ -58.387286, -34.594644 ], [ -58.388, -34.591709 ], [ -58.383633, -34.587362 ], [ -58.39051, -34.585436 ], [ -58.3904736, -34.5863241 ], [ -58.390853, -34.587083 ], [ -58.3912539, -34.5874483 ], [ -58.3921512, -34.5877694 ], [ -58.3926194, -34.5886045 ], [ -58.3930876, -34.5892469 ], [ -58.3935948, -34.5895359 ], [ -58.391902, -34.591885 ], [ -58.392763, -34.592555 ], [ -58.393418, -34.595902 ], [ -58.393015, -34.599598 ] ] ] } },
{ "type": "Feature", "properties": { "ZONA": "POLIGONO 11" }, "geometry": { "type": "Polygon", "coordinates": [ [ [ -58.423036, -34.571109 ], [ -58.441131, -34.5621 ], [ -58.44909, -34.567768 ], [ -58.434219, -34.57556 ], [ -58.423036, -34.571109 ] ] ] } },
{ "type": "Feature", "properties": { "ZONA": "POLIGONO 10" }, "geometry": { "type": "Polygon", "coordinates": [ [ [ -58.434219, -34.57556 ], [ -58.438232, -34.588842 ], [ -58.426786, -34.577862 ], [ -58.434219, -34.57556 ] ] ] } },
{ "type": "Feature", "properties": { "ZONA": "POLIGONO 9" }, "geometry": { "type": "Polygon", "coordinates": [ [ [ -58.431323, -34.593553 ], [ -58.4171825, -34.584323 ], [ -58.426387, -34.5781043 ], [ -58.4321375, -34.5835705 ], [ -58.438232, -34.588842 ], [ -58.431323, -34.593553 ] ] ] } },
{ "type": "Feature", "properties": { "ZONA": "POLIGONO 8" }, "geometry": { "type": "Polygon", "coordinates": [ [ [ -58.41008, -34.589075 ], [ -58.417176, -34.584182 ], [ -58.431323, -34.593553 ], [ -58.415895, -34.597801 ], [ -58.41008, -34.589075 ] ] ] } },
{ "type": "Feature", "properties": { "ZONA": "POLIGONO 5" }, "geometry": { "type": "Polygon", "coordinates": [ [ [ -58.41008, -34.589075 ], [ -58.415895, -34.597801 ], [ -58.402419, -34.594392 ], [ -58.41008, -34.589075 ] ] ] } },
{ "type": "Feature", "properties": { "ZONA": "POLIGONO 3" }, "geometry": { "type": "Polygon", "coordinates": [ [ [ -58.402419, -34.594392 ], [ -58.393015, -34.599598 ], [ -58.393418, -34.595902 ], [ -58.392763, -34.592555 ], [ -58.391902, -34.591885 ], [ -58.397257, -34.587468 ], [ -58.402419, -34.594392 ] ] ] } },
{ "type": "Feature", "properties": { "ZONA": "POLIGONO 7" }, "geometry": { "type": "Polygon", "coordinates": [ [ [ -58.423036, -34.571109 ], [ -58.426786, -34.577862 ], [ -58.41008, -34.589075 ], [ -58.408148, -34.586338 ], [ -58.410294, -34.582062 ], [ -58.408148, -34.580101 ], [ -58.407118, -34.578846 ], [ -58.423036, -34.571109 ] ] ] } },
{ "type": "Feature", "properties": { "ZONA": "POLIGONO 6" }, "geometry": { "type": "Polygon", "coordinates": [ [ [ -58.400606, -34.584481 ], [ -58.407118, -34.578846 ], [ -58.408148, -34.580101 ], [ -58.410294, -34.582062 ], [ -58.408148, -34.586338 ], [ -58.408052, -34.586117 ], [ -58.406029, -34.583325 ], [ -58.401948, -34.583406 ], [ -58.400606, -34.584481 ] ] ] } },
{ "type": "Feature", "properties": { "ZONA": "POLIGONO 1" }, "geometry": { "type": "Polygon", "coordinates": [ [ [ -58.39051, -34.585436 ], [ -58.400606, -34.584481 ], [ -58.397257, -34.587468 ], [ -58.3935948, -34.5895359 ], [ -58.3930876, -34.5892469 ], [ -58.3926194, -34.5886045 ], [ -58.3921512, -34.5877694 ], [ -58.3912539, -34.5874483 ], [ -58.390853, -34.587083 ], [ -58.3904736, -34.5863241 ], [ -58.39051, -34.585436 ] ] ] } },
{ "type": "Feature", "properties": { "ZONA": "POLIGONO 4" }, "geometry": { "type": "Polygon", "coordinates": [ [ [ -58.397257, -34.587468 ], [ -58.401989, -34.583447 ], [ -58.406132, -34.583465 ], [ -58.410058, -34.58906 ], [ -58.402419, -34.594392 ], [ -58.397257, -34.587468 ] ] ] } }
]
}
