{
"type": "FeatureCollection",
"name": "tendido_policia",
"crs": { "type": "name", "properties": { "name": "urn:ogc:def:crs:OGC:1.3:CRS84" } },
"features": [
{ "type": "Feature", "properties": { "tooltip_bi": null, "lado_ciclo": null, "ciclo_obse": null, "Fibra_Op_2": "CAO", "recorrid_x": null, "BARRIO_PAR": "BARRACAS", "COM_IMPAR": "4", "red_tp": "SI", "nomanter": null, "red_jerarq": "VÍA DISTRIBUIDORA PRINCIPAL", "Fibra_Opti": "SI", "COM_PAR": "4", "id_street": "24439", "COMUNA": "4", "cod_sent": "2", "nomoficial": "DON PEDRO DE MENDOZA AV.", "codigo": "13072", "alt_izqini": "3802", "BARRIO_IMP": "BARRACAS", "tipo_c": "AVENIDA", "alt_derini": "3801", "alt_derfin": "3985", "bicisenda": "-", "nom_mapa": "AV.DON PEDRO DE MENDOZA", "observa": null, "long": "337.980715632593956", "BARRIO": "BARRACAS", "alt_izqfin": "3984", "sentido": "DOBLE", "longitud_m": 20506.58238217434 }, "geometry": { "type": "MultiLineString", "coordinates": [ [ [ -58.401569, -34.638868 ], [ -58.403251, -34.639214 ], [ -58.402987, -34.640392 ], [ -58.404782, -34.641082 ], [ -58.408855, -34.641641 ], [ -58.411044, -34.641553 ], [ -58.412351, -34.640888 ] ], [ [ -58.402388, -34.628837 ], [ -58.402004, -34.632168 ], [ -58.400488, -34.636202 ] ], [ [ -58.400488, -34.636202 ], [ -58.402119, -34.636498 ] ], [ [ -58.399667, -34.638486 ], [ -58.401569, -34.638868 ] ], [ [ -58.400094, -34.637294 ], [ -58.401852, -34.637639 ], [ -58.401569, -34.638868 ] ], [ [ -58.401569, -34.638868 ], [ -58.400937, -34.641617 ] ], [ [ -58.399706, -34.641431 ], [ -58.400937, -34.641617 ] ], [ [ -58.400937, -34.641617 ], [ -58.400248, -34.644638 ], [ -58.399167, -34.644056 ] ], [ [ -58.400488, -34.636202 ], [ -58.400094, -34.637294 ] ], [ [ -58.400094, -34.637294 ], [ -58.399667, -34.638486 ] ], [ [ -58.395125, -34.63766 ], [ -58.399667, -34.638486 ] ], [ [ -58.396834, -34.628091 ], [ -58.395618, -34.632748 ], [ -58.39686, -34.633046 ], [ -58.395125, -34.63766 ] ], [ [ -58.395125, -34.63766 ], [ -58.390167, -34.63651 ], [ -58.389577, -34.644103 ], [ -58.39631, -34.646902 ] ], [ [ -58.378405, -34.656373 ], [ -58.388554, -34.656906 ], [ -58.388318, -34.659872 ] ], [ [ -58.374609, -34.655591 ], [ -58.378405, -34.656373 ] ], [ [ -58.378109, -34.657868 ], [ -58.378405, -34.656373 ] ], [ [ -58.37777, -34.632533 ], [ -58.379048, -34.629332 ], [ -58.377936, -34.628609 ], [ -58.37711, -34.629943 ], [ -58.375398, -34.63441 ] ], [ [ -58.375068, -34.636108 ], [ -58.376785, -34.63623 ] ], [ [ -58.376581, -34.627894 ], [ -58.375623, -34.628966 ] ], [ [ -58.375359, -34.634598 ], [ -58.375068, -34.636108 ] ], [ [ -58.37507, -34.654367 ], [ -58.374609, -34.655591 ] ], [ [ -58.375068, -34.636108 ], [ -58.374733, -34.637846 ] ], [ [ -58.368044, -34.637182 ], [ -58.374733, -34.637846 ] ], [ [ -58.374733, -34.637846 ], [ -58.373655, -34.643642 ] ], [ [ -58.374157, -34.655204 ], [ -58.374609, -34.655591 ] ], [ [ -58.373655, -34.643642 ], [ -58.372916, -34.648051 ], [ -58.373272, -34.64939 ], [ -58.374548, -34.649806 ], [ -58.373832, -34.651834 ], [ -58.374157, -34.655204 ] ], [ [ -58.374157, -34.655204 ], [ -58.372613, -34.654896 ], [ -58.370645, -34.653933 ] ], [ [ -58.372446, -34.643407 ], [ -58.372076, -34.645437 ], [ -58.373207, -34.645667 ], [ -58.373655, -34.643642 ] ], [ [ -58.368044, -34.637182 ], [ -58.367625, -34.639893 ], [ -58.36925, -34.640114 ] ], [ [ -58.360872, -34.6351 ], [ -58.365023, -34.636789 ], [ -58.368044, -34.637182 ] ], [ [ -58.36307, -34.625009 ], [ -58.361455, -34.625071 ], [ -58.35598, -34.628652 ], [ -58.358175, -34.630914 ] ], [ [ -58.360872, -34.6351 ], [ -58.359375, -34.634493 ], [ -58.357435, -34.637773 ], [ -58.356188, -34.63723 ] ], [ [ -58.358175, -34.630914 ], [ -58.360819, -34.632022 ], [ -58.359858, -34.633669 ], [ -58.361373, -34.634283 ], [ -58.360872, -34.6351 ] ], [ [ -58.358982, -34.620753 ], [ -58.358661, -34.622726 ], [ -58.354754, -34.62638 ] ], [ [ -58.358175, -34.630914 ], [ -58.357034, -34.632527 ] ], [ [ -58.356406, -34.631223 ], [ -58.357034, -34.632527 ] ], [ [ -58.357034, -34.632527 ], [ -58.356555, -34.633348 ] ], [ [ -58.353499, -34.632108 ], [ -58.356555, -34.633348 ] ], [ [ -58.356555, -34.633348 ], [ -58.355614, -34.635049 ], [ -58.353456, -34.634188 ] ] ] } },
{ "type": "Feature", "properties": { "tooltip_bi": "Ciclovía mano única", "lado_ciclo": "Por calzada paralela y adyacente a la acera par", "ciclo_obse": "Confirmación de Ciclovía según Resolución N.° 392/SECTOP/20 aparecida en el Boletìn Oficial del 25/08/2020, por calzada paralela y adyacente a la acera par, en sentido único de circulación. Construcción Agosto 2020", "Fibra_Op_2": "CAO", "recorrid_x": null, "BARRIO_PAR": "BALVANERA", "COM_IMPAR": "2", "red_tp": null, "nomanter": "RIVERA-GIRIBONE", "red_jerarq": "VÍA DISTRIBUIDORA PRINCIPAL", "Fibra_Opti": "SI", "COM_PAR": "3", "id_street": "8940", "COMUNA": "0", "cod_sent": "1", "nomoficial": "CORDOBA AV.", "codigo": "3165", "alt_izqini": "1802", "BARRIO_IMP": "RECOLETA", "tipo_c": "AVENIDA", "alt_derini": "1801", "alt_derfin": "1899", "bicisenda": "Ciclovías mano única", "nom_mapa": "AV. CORDOBA", "observa": null, "long": "134.469999999999999", "BARRIO": null, "alt_izqfin": "1900", "sentido": "CRECIENTE", "longitud_m": 16616.073695147868 }, "geometry": { "type": "MultiLineString", "coordinates": [ [ [ -58.414101, -34.607906 ], [ -58.414662, -34.608189 ] ], [ [ -58.411736, -34.610539 ], [ -58.414469, -34.610736 ] ], [ [ -58.405472, -34.604563 ], [ -58.410478, -34.604026 ], [ -58.413186, -34.604137 ] ], [ [ -58.409875, -34.613994 ], [ -58.412872, -34.614115 ] ], [ [ -58.409458, -34.616612 ], [ -58.412756, -34.616629 ] ], [ [ -58.409458, -34.616612 ], [ -58.409335, -34.618701 ], [ -58.412644, -34.619394 ] ], [ [ -58.409181, -34.600843 ], [ -58.412281, -34.600243 ] ], [ [ -58.410349, -34.610439 ], [ -58.411736, -34.610539 ] ], [ [ -58.411736, -34.610539 ], [ -58.411683, -34.611856 ], [ -58.410236, -34.611568 ] ], [ [ -58.409978, -34.606717 ], [ -58.411349, -34.606532 ], [ -58.410773, -34.605108 ] ], [ [ -58.410473, -34.607935 ], [ -58.409978, -34.606717 ] ], [ [ -58.408885, -34.610335 ], [ -58.410349, -34.610439 ] ], [ [ -58.410349, -34.610439 ], [ -58.410236, -34.611568 ] ], [ [ -58.408801, -34.61147 ], [ -58.410236, -34.611568 ] ], [ [ -58.410236, -34.611568 ], [ -58.409875, -34.613994 ] ], [ [ -58.405948, -34.606546 ], [ -58.409978, -34.606717 ] ], [ [ -58.408716, -34.61261 ], [ -58.408602, -34.613966 ], [ -58.409875, -34.613994 ] ], [ [ -58.409875, -34.613994 ], [ -58.409458, -34.616612 ] ], [ [ -58.397867, -34.614837 ], [ -58.401262, -34.615509 ], [ -58.402882, -34.615441 ], [ -58.406941, -34.616352 ], [ -58.409458, -34.616612 ] ], [ [ -58.404577, -34.610041 ], [ -58.408885, -34.610335 ] ], [ [ -58.408885, -34.610335 ], [ -58.408801, -34.61147 ] ], [ [ -58.408801, -34.61147 ], [ -58.408716, -34.61261 ] ], [ [ -58.404577, -34.610041 ], [ -58.404493, -34.611178 ], [ -58.403286, -34.611102 ], [ -58.403243, -34.612284 ], [ -58.408716, -34.61261 ] ], [ [ -58.406321, -34.603172 ], [ -58.40741, -34.603022 ] ], [ [ -58.406321, -34.603172 ], [ -58.404735, -34.598036 ] ], [ [ -58.402307, -34.60209 ], [ -58.402221, -34.603423 ], [ -58.406321, -34.603172 ] ], [ [ -58.404661, -34.606458 ], [ -58.405948, -34.606546 ] ], [ [ -58.405948, -34.606546 ], [ -58.405472, -34.604563 ] ], [ [ -58.39239, -34.603155 ], [ -58.39229, -34.604435 ], [ -58.403634, -34.60475 ], [ -58.405472, -34.604563 ] ], [ [ -58.391959, -34.609234 ], [ -58.392128, -34.609181 ], [ -58.404577, -34.610041 ] ], [ [ -58.401971, -34.60747 ], [ -58.403469, -34.607526 ] ], [ [ -58.403139, -34.625446 ], [ -58.402388, -34.628837 ] ], [ [ -58.397074, -34.626933 ], [ -58.401331, -34.627454 ], [ -58.401577, -34.626389 ] ], [ [ -58.397189, -34.59973 ], [ -58.398726, -34.59976 ] ], [ [ -58.397439, -34.611872 ], [ -58.397447, -34.614741 ], [ -58.397867, -34.614837 ] ], [ [ -58.397867, -34.614837 ], [ -58.397814, -34.615381 ] ], [ [ -58.39168, -34.614916 ], [ -58.397814, -34.615381 ] ], [ [ -58.397814, -34.615381 ], [ -58.397473, -34.61949 ], [ -58.395989, -34.624189 ], [ -58.395736, -34.625587 ] ], [ [ -58.395736, -34.625587 ], [ -58.397269, -34.625745 ] ], [ [ -58.392934, -34.599636 ], [ -58.397189, -34.59973 ] ], [ [ -58.392473, -34.603154 ], [ -58.396928, -34.603282 ], [ -58.397189, -34.59973 ] ], [ [ -58.395736, -34.625587 ], [ -58.395529, -34.626786 ], [ -58.397074, -34.626933 ] ], [ [ -58.397074, -34.626933 ], [ -58.396834, -34.628091 ] ] ] } },
{ "type": "Feature", "properties": { "tooltip_bi": null, "lado_ciclo": null, "ciclo_obse": null, "Fibra_Op_2": "CAO", "recorrid_x": null, "BARRIO_PAR": "VILLA ORTUZAR", "COM_IMPAR": "15", "red_tp": null, "nomanter": null, "red_jerarq": "VÍA LOCAL", "Fibra_Opti": "SI", "COM_PAR": "15", "id_street": "27740", "COMUNA": "15", "cod_sent": "1", "nomoficial": "HOLMBERG", "codigo": "8018", "alt_izqini": "0", "BARRIO_IMP": "VILLA ORTUZAR", "tipo_c": "CALLE", "alt_derini": "0", "alt_derfin": "0", "bicisenda": "-", "nom_mapa": "HOLMBERG", "observa": null, "long": "17.039999999999999", "BARRIO": "VILLA ORTUZAR", "alt_izqfin": "0", "sentido": "CRECIENTE", "longitud_m": 15080.502307317403 }, "geometry": { "type": "MultiLineString", "coordinates": [ [ [ -58.492908, -34.597067 ], [ -58.494279, -34.595031 ], [ -58.498201, -34.590701 ] ], [ [ -58.493579, -34.588956 ], [ -58.494224, -34.588241 ] ], [ [ -58.488054, -34.595984 ], [ -58.490185, -34.59725 ] ], [ [ -58.468953, -34.578377 ], [ -58.471806, -34.575033 ] ], [ [ -58.455119, -34.586982 ], [ -58.455583, -34.587177 ], [ -58.459903, -34.585672 ], [ -58.461742, -34.586206 ], [ -58.46651, -34.590547 ], [ -58.469212, -34.588736 ], [ -58.470409, -34.589855 ] ], [ [ -58.465795, -34.576553 ], [ -58.468953, -34.578377 ] ], [ [ -58.455119, -34.586982 ], [ -58.453966, -34.585182 ], [ -58.454634, -34.584446 ], [ -58.458832, -34.583006 ], [ -58.460534, -34.58295 ], [ -58.46053, -34.579667 ], [ -58.468353, -34.579437 ], [ -58.468953, -34.578377 ] ], [ [ -58.450595, -34.605235 ], [ -58.455886, -34.599464 ] ], [ [ -58.455119, -34.586982 ], [ -58.454974, -34.587429 ] ], [ [ -58.452368, -34.591655 ], [ -58.453252, -34.591002 ], [ -58.452589, -34.59002 ], [ -58.455384, -34.588007 ], [ -58.454974, -34.587429 ] ], [ [ -58.439765, -34.598974 ], [ -58.450768, -34.588691 ], [ -58.451217, -34.588828 ], [ -58.454974, -34.587429 ] ], [ [ -58.452106, -34.594784 ], [ -58.454167, -34.593271 ], [ -58.452368, -34.591655 ] ], [ [ -58.44972, -34.59361 ], [ -58.452368, -34.591655 ] ], [ [ -58.443979, -34.602273 ], [ -58.452029, -34.594901 ] ], [ [ -58.450595, -34.605235 ], [ -58.452016, -34.606167 ] ], [ [ -58.444962, -34.602889 ], [ -58.449914, -34.605979 ], [ -58.450595, -34.605235 ] ], [ [ -58.449129, -34.595789 ], [ -58.448071, -34.595014 ] ], [ [ -58.443979, -34.602273 ], [ -58.439765, -34.598974 ] ], [ [ -58.440336, -34.605893 ], [ -58.443979, -34.602273 ] ], [ [ -58.439765, -34.598974 ], [ -58.431221, -34.593539 ] ], [ [ -58.4322, -34.602072 ], [ -58.438766, -34.599874 ], [ -58.439765, -34.598974 ] ] ] } },
{ "type": "Feature", "properties": { "tooltip_bi": null, "lado_ciclo": null, "ciclo_obse": null, "Fibra_Op_2": "CAO", "recorrid_x": null, "BARRIO_PAR": "CABALLITO", "COM_IMPAR": "15", "red_tp": null, "nomanter": "LAVALLE (parcial) - CHUBUT - RIO DE JANEIRO (parci", "red_jerarq": "VÍA DISTRIBUIDORA PRINCIPAL", "Fibra_Opti": "SI", "COM_PAR": "6", "id_street": "10585", "COMUNA": "0", "cod_sent": "1", "nomoficial": "GALLARDO, ANGEL AV.", "codigo": "7016", "alt_izqini": "0", "BARRIO_IMP": "VILLA CRESPO", "tipo_c": "AVENIDA", "alt_derini": "0", "alt_derfin": "0", "bicisenda": "-", "nom_mapa": "AV. ANGEL GALLARDO", "observa": null, "long": "18.699999999999999", "BARRIO": null, "alt_izqfin": "0", "sentido": "CRECIENTE", "longitud_m": 16112.931316667118 }, "geometry": { "type": "MultiLineString", "coordinates": [ [ [ -58.452016, -34.606167 ], [ -58.454452, -34.607799 ], [ -58.459181, -34.610019 ], [ -58.461075, -34.610665 ] ], [ [ -58.453538, -34.624072 ], [ -58.454575, -34.624479 ] ], [ [ -58.4495, -34.625013 ], [ -58.453438, -34.62678 ] ], [ [ -58.446592, -34.617554 ], [ -58.448178, -34.617962 ], [ -58.453363, -34.620237 ], [ -58.45308, -34.621472 ] ], [ [ -58.446697, -34.615985 ], [ -58.450273, -34.615781 ] ], [ [ -58.446898, -34.623853 ], [ -58.4495, -34.625013 ] ], [ [ -58.4495, -34.625013 ], [ -58.448785, -34.626821 ] ], [ [ -58.44806, -34.612874 ], [ -58.449128, -34.613306 ] ], [ [ -58.44806, -34.612874 ], [ -58.449174, -34.610805 ], [ -58.448034, -34.610356 ], [ -58.448894, -34.608847 ], [ -58.447809, -34.608294 ] ], [ [ -58.446594, -34.614995 ], [ -58.44806, -34.612874 ] ], [ [ -58.445788, -34.622405 ], [ -58.447265, -34.622985 ], [ -58.446898, -34.623853 ] ], [ [ -58.446898, -34.623853 ], [ -58.444478, -34.629582 ] ], [ [ -58.446697, -34.615985 ], [ -58.446594, -34.614995 ] ], [ [ -58.446592, -34.617554 ], [ -58.446697, -34.615985 ] ], [ [ -58.443359, -34.615929 ], [ -58.446697, -34.615985 ] ], [ [ -58.444165, -34.614036 ], [ -58.446594, -34.614995 ] ], [ [ -58.445733, -34.620903 ], [ -58.446592, -34.617554 ] ], [ [ -58.445733, -34.620903 ], [ -58.446492, -34.621228 ] ], [ [ -58.435915, -34.619363 ], [ -58.442205, -34.621082 ], [ -58.445788, -34.622405 ] ], [ [ -58.445214, -34.622057 ], [ -58.445788, -34.622405 ] ], [ [ -58.440747, -34.618735 ], [ -58.445733, -34.620903 ] ], [ [ -58.445214, -34.622057 ], [ -58.445733, -34.620903 ] ], [ [ -58.436458, -34.6183 ], [ -58.445214, -34.622057 ] ], [ [ -58.442827, -34.613508 ], [ -58.444165, -34.614036 ] ], [ [ -58.444165, -34.614036 ], [ -58.44475, -34.612868 ], [ -58.443281, -34.612302 ] ], [ [ -58.443359, -34.615929 ], [ -58.443733, -34.615032 ] ], [ [ -58.442784, -34.617313 ], [ -58.443359, -34.615929 ] ], [ [ -58.443173, -34.628084 ], [ -58.442926, -34.629351 ] ], [ [ -58.440133, -34.606494 ], [ -58.4416, -34.606501 ], [ -58.442589, -34.607743 ] ], [ [ -58.440061, -34.613585 ], [ -58.440506, -34.612596 ] ], [ [ -58.440133, -34.606494 ], [ -58.440336, -34.605893 ] ], [ [ -58.440121, -34.608797 ], [ -58.440133, -34.606494 ] ], [ [ -58.438402, -34.612793 ], [ -58.440121, -34.608797 ] ], [ [ -58.43886, -34.608798 ], [ -58.440121, -34.608797 ] ], [ [ -58.438402, -34.612793 ], [ -58.440061, -34.613585 ] ], [ [ -58.439578, -34.614712 ], [ -58.440061, -34.613585 ] ], [ [ -58.437731, -34.612473 ], [ -58.438402, -34.612793 ] ], [ [ -58.437813, -34.614075 ], [ -58.438402, -34.612793 ] ], [ [ -58.436955, -34.614327 ], [ -58.437813, -34.614075 ] ], [ [ -58.437585, -34.615885 ], [ -58.437813, -34.614075 ] ], [ [ -58.436458, -34.6183 ], [ -58.437578, -34.615943 ] ], [ [ -58.434429, -34.613364 ], [ -58.436955, -34.614327 ] ], [ [ -58.435259, -34.615194 ], [ -58.436368, -34.615541 ], [ -58.436955, -34.614327 ] ], [ [ -58.435915, -34.619363 ], [ -58.435502, -34.620406 ], [ -58.436942, -34.621035 ] ], [ [ -58.429254, -34.615105 ], [ -58.436458, -34.6183 ] ], [ [ -58.436458, -34.6183 ], [ -58.435915, -34.619363 ] ], [ [ -58.4334, -34.61893 ], [ -58.435915, -34.619363 ] ], [ [ -58.430088, -34.614014 ], [ -58.430235, -34.611897 ], [ -58.432792, -34.61299 ], [ -58.434429, -34.613364 ] ], [ [ -58.434429, -34.613364 ], [ -58.434109, -34.612528 ] ], [ [ -58.433806, -34.614693 ], [ -58.434429, -34.613364 ] ], [ [ -58.428553, -34.618294 ], [ -58.4334, -34.61893 ] ], [ [ -58.4334, -34.61893 ], [ -58.432987, -34.620045 ] ], [ [ -58.430608, -34.607046 ], [ -58.430476, -34.608725 ], [ -58.432926, -34.608748 ], [ -58.433266, -34.609275 ] ] ] } },
{ "type": "Feature", "properties": { "tooltip_bi": null, "lado_ciclo": null, "ciclo_obse": null, "Fibra_Op_2": "CAO", "recorrid_x": null, "BARRIO_PAR": "ALMAGRO", "COM_IMPAR": "5", "red_tp": null, "nomanter": null, "red_jerarq": "VÍA LOCAL", "Fibra_Opti": "SI", "COM_PAR": "5", "id_street": "8750", "COMUNA": "5", "cod_sent": "-1", "nomoficial": "BULNES", "codigo": "2127", "alt_izqini": "1102", "BARRIO_IMP": "ALMAGRO", "tipo_c": "CALLE", "alt_derini": "1101", "alt_derfin": "1199", "bicisenda": "-", "nom_mapa": "BULNES", "observa": null, "long": "118.859999999999999", "BARRIO": "ALMAGRO", "alt_izqfin": "1200", "sentido": "DECRECIENTE", "longitud_m": 13031.951681627788 }, "geometry": { "type": "MultiLineString", "coordinates": [ [ [ -58.427106, -34.602565 ], [ -58.4322, -34.602072 ] ], [ [ -58.430412, -34.604034 ], [ -58.432147, -34.603938 ] ], [ [ -58.430671, -34.605941 ], [ -58.430412, -34.604034 ] ], [ [ -58.427664, -34.607275 ], [ -58.430608, -34.607046 ] ], [ [ -58.427339, -34.604209 ], [ -58.430412, -34.604034 ] ], [ [ -58.427664, -34.607275 ], [ -58.427347, -34.611291 ], [ -58.430235, -34.611897 ] ], [ [ -58.426928, -34.601305 ], [ -58.429951, -34.601002 ] ], [ [ -58.42494, -34.613197 ], [ -58.429254, -34.615105 ] ], [ [ -58.412756, -34.616629 ], [ -58.414205, -34.617149 ], [ -58.428553, -34.618294 ] ], [ [ -58.427664, -34.607275 ], [ -58.427339, -34.604209 ] ], [ [ -58.426182, -34.607278 ], [ -58.427664, -34.607275 ] ], [ [ -58.427339, -34.604209 ], [ -58.427106, -34.602565 ] ], [ [ -58.427106, -34.602565 ], [ -58.426928, -34.601305 ] ], [ [ -58.418034, -34.603468 ], [ -58.427106, -34.602565 ] ], [ [ -58.426928, -34.601305 ], [ -58.426628, -34.599194 ] ], [ [ -58.414469, -34.610736 ], [ -58.41972, -34.611122 ], [ -58.421214, -34.611548 ], [ -58.42494, -34.613197 ] ], [ [ -58.42494, -34.613197 ], [ -58.425576, -34.61213 ], [ -58.424239, -34.611562 ], [ -58.424565, -34.61011 ], [ -58.422801, -34.609905 ], [ -58.423038, -34.608599 ], [ -58.42154, -34.608571 ], [ -58.42119, -34.60489 ], [ -58.417055, -34.605493 ] ], [ [ -58.417265, -34.597825 ], [ -58.417916, -34.599901 ], [ -58.419087, -34.600149 ], [ -58.420439, -34.599516 ], [ -58.422041, -34.599363 ] ], [ [ -58.417277, -34.606887 ], [ -58.418617, -34.606779 ] ], [ [ -58.418034, -34.603468 ], [ -58.417709, -34.599966 ], [ -58.416146, -34.600452 ] ], [ [ -58.415663, -34.603804 ], [ -58.418034, -34.603468 ] ], [ [ -58.417837, -34.612493 ], [ -58.417161, -34.614551 ], [ -58.415973, -34.614439 ] ], [ [ -58.41751, -34.608538 ], [ -58.417277, -34.606887 ] ], [ [ -58.417408, -34.609554 ], [ -58.41751, -34.608538 ] ], [ [ -58.414662, -34.608189 ], [ -58.41751, -34.608538 ] ], [ [ -58.417277, -34.606887 ], [ -58.417055, -34.605493 ] ], [ [ -58.417055, -34.605493 ], [ -58.415863, -34.604831 ] ], [ [ -58.412872, -34.614115 ], [ -58.415973, -34.614439 ] ], [ [ -58.415973, -34.614439 ], [ -58.415781, -34.615621 ] ], [ [ -58.415863, -34.604831 ], [ -58.415663, -34.603804 ] ], [ [ -58.414736, -34.604972 ], [ -58.415863, -34.604831 ] ], [ [ -58.415663, -34.603804 ], [ -58.413186, -34.604137 ], [ -58.412281, -34.600243 ] ], [ [ -58.412644, -34.619394 ], [ -58.413941, -34.619663 ] ] ] } },
{ "type": "Feature", "properties": { "tooltip_bi": "Bicisenda preexistente", "lado_ciclo": null, "ciclo_obse": null, "Fibra_Op_2": "CAO", "recorrid_x": null, "BARRIO_PAR": "SAAVEDRA", "COM_IMPAR": "12", "red_tp": null, "nomanter": null, "red_jerarq": "VÍA DISTRIBUIDORA COMPLEMENTARIA", "Fibra_Opti": "SI", "COM_PAR": "12", "id_street": "637", "COMUNA": "12", "cod_sent": "-1", "nomoficial": "GARCIA DEL RIO AV.", "codigo": "7028", "alt_izqini": "2402", "BARRIO_IMP": "SAAVEDRA", "tipo_c": "AVENIDA", "alt_derini": "0", "alt_derfin": "0", "bicisenda": "Bicisendas preexistentes", "nom_mapa": "AV. GARCIA DEL RIO", "observa": null, "long": "130.849999999999994", "BARRIO": "SAAVEDRA", "alt_izqfin": "2500", "sentido": "DECRECIENTE", "longitud_m": 13674.239010949936 }, "geometry": { "type": "MultiLineString", "coordinates": [ [ [ -58.504262, -34.58621 ], [ -58.508243, -34.58868 ] ], [ [ -58.504262, -34.58621 ], [ -58.506503, -34.583733 ], [ -58.505219, -34.582936 ] ], [ [ -58.498454, -34.582605 ], [ -58.504262, -34.58621 ] ], [ [ -58.498847, -34.589987 ], [ -58.500133, -34.590781 ], [ -58.504262, -34.58621 ] ], [ [ -58.498454, -34.582605 ], [ -58.499992, -34.580912 ] ], [ [ -58.492926, -34.556204 ], [ -58.497216, -34.550067 ], [ -58.499618, -34.550769 ] ], [ [ -58.498847, -34.589987 ], [ -58.499499, -34.589265 ] ], [ [ -58.494224, -34.588241 ], [ -58.494871, -34.587527 ], [ -58.498847, -34.589987 ] ], [ [ -58.498201, -34.590701 ], [ -58.498847, -34.589987 ] ], [ [ -58.490208, -34.577805 ], [ -58.498454, -34.582605 ] ], [ [ -58.492926, -34.556204 ], [ -58.491032, -34.5553 ], [ -58.491582, -34.554506 ] ], [ [ -58.489086, -34.561739 ], [ -58.492926, -34.556204 ] ], [ [ -58.489086, -34.561739 ], [ -58.491936, -34.563105 ] ], [ [ -58.481757, -34.575747 ], [ -58.483589, -34.573896 ], [ -58.490208, -34.577805 ] ], [ [ -58.488678, -34.578099 ], [ -58.490208, -34.577805 ] ], [ [ -58.481803, -34.565361 ], [ -58.483097, -34.564726 ], [ -58.485498, -34.565972 ], [ -58.488139, -34.563102 ], [ -58.489086, -34.561739 ] ], [ [ -58.4799, -34.564373 ], [ -58.481803, -34.565361 ] ], [ [ -58.475804, -34.571984 ], [ -58.47921, -34.568363 ], [ -58.481803, -34.565361 ] ], [ [ -58.477732, -34.573122 ], [ -58.480169, -34.57433 ], [ -58.481757, -34.575747 ] ], [ [ -58.478988, -34.579125 ], [ -58.482737, -34.57662 ], [ -58.481757, -34.575747 ] ], [ [ -58.479, -34.563911 ], [ -58.4799, -34.564373 ] ], [ [ -58.479, -34.563911 ], [ -58.4799, -34.564373 ] ], [ [ -58.474436, -34.552422 ], [ -58.477855, -34.554314 ], [ -58.478674, -34.553238 ], [ -58.479604, -34.553727 ] ], [ [ -58.477732, -34.573122 ], [ -58.479441, -34.572786 ] ], [ [ -58.474753, -34.561804 ], [ -58.479, -34.563911 ] ], [ [ -58.475804, -34.571984 ], [ -58.477732, -34.573122 ] ], [ [ -58.471806, -34.575033 ], [ -58.47486, -34.571426 ], [ -58.475804, -34.571984 ] ], [ [ -58.471008, -34.550525 ], [ -58.471993, -34.549231 ], [ -58.468668, -34.548348 ] ] ] } },
{ "type": "Feature", "properties": { "tooltip_bi": "Ciclovía", "lado_ciclo": "Mano izquierda", "ciclo_obse": "Construcción Año 2010", "Fibra_Op_2": "CAO", "recorrid_x": "Vereda", "BARRIO_PAR": "RECOLETA", "COM_IMPAR": "2", "red_tp": null, "nomanter": "GALLO", "red_jerarq": "VÍA DISTRIBUIDORA COMPLEMENTARIA", "Fibra_Opti": "SI", "COM_PAR": "2", "id_street": "5327", "COMUNA": "2", "cod_sent": "1", "nomoficial": "AUSTRIA", "codigo": "1138", "alt_izqini": "2702", "BARRIO_IMP": "RECOLETA", "tipo_c": "CALLE", "alt_derini": "2701", "alt_derfin": "2899", "bicisenda": "Ciclovías", "nom_mapa": "AUSTRIA", "observa": "Según Ley 1420 public. en el BO N° 2036 del 30/09/2004, sentido único de circulación desde Av. Figueroa Alcorta hasta Av. Del Libertador de NO a SO, los días hábiles de 17 a 22 hs y con sentido inverso en este tramo todos los días y horarios resta", "long": "193.919999999999987", "BARRIO": "RECOLETA", "alt_izqfin": "2900", "sentido": "CRECIENTE", "longitud_m": 3952.7854783473476 }, "geometry": { "type": "MultiLineString", "coordinates": [ [ [ -58.403616, -34.594077 ], [ -58.405006, -34.593412 ], [ -58.410084, -34.589057 ] ], [ [ -58.403616, -34.594077 ], [ -58.40418, -34.595234 ], [ -58.407268, -34.593562 ] ], [ [ -58.402351, -34.594442 ], [ -58.403616, -34.594077 ] ], [ [ -58.397223, -34.583095 ], [ -58.395989, -34.581676 ], [ -58.398113, -34.580702 ] ], [ [ -58.397572, -34.587155 ], [ -58.396545, -34.585322 ] ], [ [ -58.397572, -34.587155 ], [ -58.399117, -34.585762 ], [ -58.395998, -34.583386 ], [ -58.397223, -34.583095 ] ], [ [ -58.397219, -34.587461 ], [ -58.397572, -34.587155 ] ], [ [ -58.397223, -34.583095 ], [ -58.397315, -34.583079 ] ], [ [ -58.391959, -34.595838 ], [ -58.393315, -34.595862 ], [ -58.392838, -34.592639 ], [ -58.391894, -34.591764 ], [ -58.392916, -34.590936 ] ], [ [ -58.389668, -34.59944 ], [ -58.389723, -34.598478 ], [ -58.388205, -34.598368 ] ], [ [ -58.383847, -34.587678 ], [ -58.385029, -34.587035 ] ] ] } },
{ "type": "Feature", "properties": { "tooltip_bi": null, "lado_ciclo": null, "ciclo_obse": null, "Fibra_Op_2": "CAO", "recorrid_x": null, "BARRIO_PAR": "VILLA DEVOTO", "COM_IMPAR": "11", "red_tp": null, "nomanter": "TIMBO", "red_jerarq": "VÍA LOCAL", "Fibra_Opti": "SI", "COM_PAR": "11", "id_street": "27778", "COMUNA": "11", "cod_sent": "1", "nomoficial": "LOPEZ, CARLOS ANTONIO", "codigo": "12129", "alt_izqini": "0", "BARRIO_IMP": "VILLA DEVOTO", "tipo_c": "CALLE", "alt_derini": "0", "alt_derfin": "0", "bicisenda": "-", "nom_mapa": "CARLOS ANTONIO LOPEZ", "observa": null, "long": "15.580000000000000", "BARRIO": "VILLA DEVOTO", "alt_izqfin": "0", "sentido": "CRECIENTE", "longitud_m": 17924.402490656696 }, "geometry": { "type": "MultiLineString", "coordinates": [ [ [ -58.522782, -34.609264 ], [ -58.527346, -34.612392 ] ], [ [ -58.521346, -34.606102 ], [ -58.523917, -34.603226 ], [ -58.525662, -34.603297 ], [ -58.526727, -34.605369 ] ], [ [ -58.520404, -34.611138 ], [ -58.523512, -34.613014 ] ], [ [ -58.521346, -34.606102 ], [ -58.524306, -34.60806 ], [ -58.522782, -34.609264 ] ], [ [ -58.520404, -34.611138 ], [ -58.522782, -34.609264 ] ], [ [ -58.517544, -34.603758 ], [ -58.521346, -34.606102 ] ], [ [ -58.517601, -34.599321 ], [ -58.51962, -34.597088 ], [ -58.520922, -34.59783 ] ], [ [ -58.516375, -34.614201 ], [ -58.520404, -34.611138 ] ], [ [ -58.516375, -34.614201 ], [ -58.52012, -34.617795 ] ], [ [ -58.508243, -34.58868 ], [ -58.520449, -34.596169 ], [ -58.519824, -34.596864 ] ], [ [ -58.515063, -34.597755 ], [ -58.517601, -34.599321 ] ], [ [ -58.515009, -34.602194 ], [ -58.517601, -34.599321 ] ], [ [ -58.515009, -34.602194 ], [ -58.517544, -34.603758 ] ], [ [ -58.507053, -34.613187 ], [ -58.509156, -34.610895 ], [ -58.510286, -34.609231 ], [ -58.512783, -34.606465 ], [ -58.514273, -34.607383 ], [ -58.517544, -34.603758 ] ], [ [ -58.516375, -34.614201 ], [ -58.514472, -34.613049 ], [ -58.515241, -34.612258 ] ], [ [ -58.514385, -34.615702 ], [ -58.516375, -34.614201 ] ], [ [ -58.512256, -34.602334 ], [ -58.515009, -34.602194 ] ], [ [ -58.481899, -34.606491 ], [ -58.488126, -34.609812 ], [ -58.489274, -34.610586 ], [ -58.494797, -34.604628 ], [ -58.495992, -34.603041 ] ], [ [ -58.481899, -34.606491 ], [ -58.487445, -34.600347 ], [ -58.489526, -34.597296 ], [ -58.490185, -34.59725 ], [ -58.492908, -34.597067 ] ], [ [ -58.47793, -34.604434 ], [ -58.480591, -34.601021 ], [ -58.482589, -34.602153 ] ], [ [ -58.47793, -34.604434 ], [ -58.481899, -34.606491 ] ], [ [ -58.476202, -34.60665 ], [ -58.477329, -34.607252 ], [ -58.48041, -34.608126 ], [ -58.481899, -34.606491 ] ], [ [ -58.48074, -34.623779 ], [ -58.481822, -34.622914 ] ], [ [ -58.476202, -34.60665 ], [ -58.47793, -34.604434 ] ], [ [ -58.475498, -34.621179 ], [ -58.47707, -34.619183 ] ], [ [ -58.472742, -34.611109 ], [ -58.476202, -34.60665 ] ], [ [ -58.473125, -34.612736 ], [ -58.473924, -34.611733 ], [ -58.472742, -34.611109 ] ], [ [ -58.469599, -34.615158 ], [ -58.472742, -34.611109 ] ], [ [ -58.461641, -34.609522 ], [ -58.461075, -34.610665 ], [ -58.469599, -34.615158 ] ], [ [ -58.467961, -34.617269 ], [ -58.469599, -34.615158 ] ] ] } },
{ "type": "Feature", "properties": { "tooltip_bi": null, "lado_ciclo": null, "ciclo_obse": null, "Fibra_Op_2": "CAO", "recorrid_x": null, "BARRIO_PAR": "RETIRO", "COM_IMPAR": "1", "red_tp": null, "nomanter": "REPUBLICA FEDERATIVA DEL BRASIL", "red_jerarq": "VÍA LOCAL", "Fibra_Opti": "SI", "COM_PAR": "1", "id_street": "27486", "COMUNA": "1", "cod_sent": "1", "nomoficial": "LETONIA", "codigo": "50049", "alt_izqini": "0", "BARRIO_IMP": "RETIRO", "tipo_c": "CALLE", "alt_derini": "0", "alt_derfin": "0", "bicisenda": "-", "nom_mapa": "LETONIA", "observa": "CALLE NUEVA - Denominación Oficial de Letonia según Ley 1750 publicada en el Boletín Oficial 2275 del 14/09/2005", "long": "149.740000000000009", "BARRIO": "RETIRO", "alt_izqfin": "0", "sentido": "CRECIENTE", "longitud_m": 40802.806377980029 }, "geometry": { "type": "MultiLineString", "coordinates": [ [ [ -58.389668, -34.59944 ], [ -58.392934, -34.599636 ] ], [ [ -58.389395, -34.604218 ], [ -58.39229, -34.604435 ] ], [ [ -58.388511, -34.609011 ], [ -58.391959, -34.609234 ] ], [ [ -58.388954, -34.613637 ], [ -58.391714, -34.613824 ] ], [ [ -58.388954, -34.613637 ], [ -58.388973, -34.614695 ], [ -58.39168, -34.614916 ] ], [ [ -58.381049, -34.584869 ], [ -58.386152, -34.581748 ], [ -58.388345, -34.581112 ], [ -58.390795, -34.579956 ] ], [ [ -58.385686, -34.628424 ], [ -58.390051, -34.629175 ] ], [ [ -58.38719, -34.62485 ], [ -58.388392, -34.624938 ], [ -58.388311, -34.626202 ], [ -58.389537, -34.626207 ] ], [ [ -58.386595, -34.603998 ], [ -58.389395, -34.604218 ] ], [ [ -58.389395, -34.604218 ], [ -58.389532, -34.601799 ], [ -58.386697, -34.601653 ] ], [ [ -58.386079, -34.613434 ], [ -58.388954, -34.613637 ] ], [ [ -58.388945, -34.612467 ], [ -58.388954, -34.613637 ] ], [ [ -58.387488, -34.612377 ], [ -58.388945, -34.612467 ] ], [ [ -58.387291, -34.609455 ], [ -58.389053, -34.610079 ], [ -58.388945, -34.612467 ] ], [ [ -58.386258, -34.609384 ], [ -58.388511, -34.609011 ] ], [ [ -58.387291, -34.609455 ], [ -58.388511, -34.609011 ] ], [ [ -58.386258, -34.609384 ], [ -58.387291, -34.609455 ] ], [ [ -58.385786, -34.624761 ], [ -58.38719, -34.62485 ] ], [ [ -58.387182, -34.624026 ], [ -58.38719, -34.62485 ] ], [ [ -58.385732, -34.627062 ], [ -58.387185, -34.627117 ] ], [ [ -58.385833, -34.62239 ], [ -58.387183, -34.622466 ] ], [ [ -58.382697, -34.630215 ], [ -58.382666, -34.63086 ], [ -58.386739, -34.631225 ] ], [ [ -58.38528, -34.601582 ], [ -58.386697, -34.601653 ] ], [ [ -58.386595, -34.603998 ], [ -58.386697, -34.601653 ] ], [ [ -58.385136, -34.603911 ], [ -58.386595, -34.603998 ] ], [ [ -58.378505, -34.5951 ], [ -58.379958, -34.595228 ], [ -58.380082, -34.592859 ], [ -58.386508, -34.592825 ] ], [ [ -58.384845, -34.609287 ], [ -58.386258, -34.609384 ] ], [ [ -58.381824, -34.611916 ], [ -58.381758, -34.613129 ], [ -58.386079, -34.613434 ] ], [ [ -58.386079, -34.613434 ], [ -58.385958, -34.614551 ] ], [ [ -58.380278, -34.617638 ], [ -58.381515, -34.61766 ], [ -58.381431, -34.622162 ], [ -58.385833, -34.62239 ] ], [ [ -58.385833, -34.62239 ], [ -58.385786, -34.624761 ] ], [ [ -58.384383, -34.62471 ], [ -58.385786, -34.624761 ] ], [ [ -58.385786, -34.624761 ], [ -58.385755, -34.62611 ] ], [ [ -58.38288, -34.625989 ], [ -58.385755, -34.62611 ] ], [ [ -58.385755, -34.62611 ], [ -58.385732, -34.627062 ] ], [ [ -58.382844, -34.626958 ], [ -58.385732, -34.627062 ] ], [ [ -58.385732, -34.627062 ], [ -58.385686, -34.628424 ] ], [ [ -58.384332, -34.628174 ], [ -58.385686, -34.628424 ] ], [ [ -58.385384, -34.607556 ], [ -58.385457, -34.606378 ] ], [ [ -58.382401, -34.600784 ], [ -58.382356, -34.601399 ], [ -58.38528, -34.601582 ] ], [ [ -58.382436, -34.600324 ], [ -58.383948, -34.60043 ], [ -58.384032, -34.599159 ], [ -58.385475, -34.599227 ], [ -58.38528, -34.601582 ] ], [ [ -58.385136, -34.603911 ], [ -58.38528, -34.601582 ] ], [ [ -58.382061, -34.603736 ], [ -58.385136, -34.603911 ] ], [ [ -58.384845, -34.609287 ], [ -58.385136, -34.603911 ] ], [ [ -58.380686, -34.609002 ], [ -58.384845, -34.609287 ] ], [ [ -58.38293, -34.624681 ], [ -58.384383, -34.62471 ] ], [ [ -58.381426, -34.624631 ], [ -58.38145, -34.623814 ], [ -58.384391, -34.624003 ], [ -58.384383, -34.62471 ] ], [ [ -58.382813, -34.62786 ], [ -58.384332, -34.628174 ] ], [ [ -58.384332, -34.628174 ], [ -58.384262, -34.629103 ] ], [ [ -58.375335, -34.592765 ], [ -58.378753, -34.590492 ], [ -58.383847, -34.587678 ] ], [ [ -58.382844, -34.626958 ], [ -58.382168, -34.627837 ] ], [ [ -58.382844, -34.626958 ], [ -58.382813, -34.62786 ] ], [ [ -58.382168, -34.627837 ], [ -58.382813, -34.62786 ] ], [ [ -58.382813, -34.62786 ], [ -58.382697, -34.630215 ] ], [ [ -58.382168, -34.627837 ], [ -58.381436, -34.627803 ], [ -58.381357, -34.630174 ], [ -58.382697, -34.630215 ] ], [ [ -58.379475, -34.603576 ], [ -58.382061, -34.603736 ] ], [ [ -58.379383, -34.604907 ], [ -58.382061, -34.603736 ] ], [ [ -58.379191, -34.608899 ], [ -58.380686, -34.609002 ] ], [ [ -58.380686, -34.609002 ], [ -58.380839, -34.606084 ], [ -58.380263, -34.606056 ] ], [ [ -58.380655, -34.609604 ], [ -58.380486, -34.613039 ] ], [ [ -58.379191, -34.608899 ], [ -58.379022, -34.612944 ], [ -58.380486, -34.613039 ] ], [ [ -58.380486, -34.613039 ], [ -58.380278, -34.617638 ] ], [ [ -58.380263, -34.606056 ], [ -58.380314, -34.604897 ] ], [ [ -58.374443, -34.617252 ], [ -58.380278, -34.617638 ] ], [ [ -58.380278, -34.617638 ], [ -58.380254, -34.618502 ] ], [ [ -58.379324, -34.606009 ], [ -58.380263, -34.606056 ] ], [ [ -58.374365, -34.618516 ], [ -58.380254, -34.618502 ] ], [ [ -58.380254, -34.618502 ], [ -58.380008, -34.622136 ] ], [ [ -58.378075, -34.603491 ], [ -58.379475, -34.603576 ] ], [ [ -58.379387, -34.604837 ], [ -58.379475, -34.603576 ] ], [ [ -58.373718, -34.605615 ], [ -58.379324, -34.606009 ] ], [ [ -58.379191, -34.608899 ], [ -58.379324, -34.606009 ] ], [ [ -58.377785, -34.608801 ], [ -58.379191, -34.608899 ] ], [ [ -58.375528, -34.584277 ], [ -58.379148, -34.582198 ] ], [ [ -58.378505, -34.5951 ], [ -58.376869, -34.594558 ] ], [ [ -58.378212, -34.600076 ], [ -58.378505, -34.5951 ] ], [ [ -58.374087, -34.599786 ], [ -58.378212, -34.600076 ] ], [ [ -58.378075, -34.603491 ], [ -58.378212, -34.600076 ] ], [ [ -58.373854, -34.603232 ], [ -58.378075, -34.603491 ] ], [ [ -58.372674, -34.624323 ], [ -58.372553, -34.626698 ], [ -58.374584, -34.62676 ], [ -58.377936, -34.628609 ] ], [ [ -58.37213, -34.608929 ], [ -58.373508, -34.608512 ], [ -58.377785, -34.608801 ] ], [ [ -58.377785, -34.608801 ], [ -58.376337, -34.609299 ] ], [ [ -58.371718, -34.616024 ], [ -58.373132, -34.616029 ], [ -58.37332, -34.612554 ], [ -58.377585, -34.61285 ] ], [ [ -58.376869, -34.594558 ], [ -58.375335, -34.592765 ] ], [ [ -58.376869, -34.594558 ], [ -58.375335, -34.592765 ] ], [ [ -58.375528, -34.584277 ], [ -58.374801, -34.583389 ] ], [ [ -58.372421, -34.589063 ], [ -58.377203, -34.586373 ], [ -58.375528, -34.584277 ] ], [ [ -58.372674, -34.624323 ], [ -58.375476, -34.624563 ] ], [ [ -58.375335, -34.592765 ], [ -58.374073, -34.591167 ] ], [ [ -58.374801, -34.583389 ], [ -58.376565, -34.582364 ], [ -58.375176, -34.580663 ] ], [ [ -58.37379, -34.604464 ], [ -58.375166, -34.604564 ] ], [ [ -58.373423, -34.584139 ], [ -58.374801, -34.583389 ] ], [ [ -58.369878, -34.617166 ], [ -58.374443, -34.617252 ] ], [ [ -58.374443, -34.617252 ], [ -58.374365, -34.618516 ] ], [ [ -58.374365, -34.618516 ], [ -58.374167, -34.621942 ], [ -58.372802, -34.621889 ], [ -58.372674, -34.624323 ] ], [ [ -58.374087, -34.599786 ], [ -58.374232, -34.597919 ] ], [ [ -58.367855, -34.59923 ], [ -58.374087, -34.599786 ] ], [ [ -58.37391, -34.60213 ], [ -58.374087, -34.599786 ] ], [ [ -58.374073, -34.591167 ], [ -58.372421, -34.589063 ] ], [ [ -58.374073, -34.591167 ], [ -58.372193, -34.591762 ] ], [ [ -58.373854, -34.603232 ], [ -58.370413, -34.603014 ], [ -58.370488, -34.601895 ], [ -58.37391, -34.60213 ] ], [ [ -58.373854, -34.603232 ], [ -58.37391, -34.60213 ] ], [ [ -58.37379, -34.604464 ], [ -58.373854, -34.603232 ] ], [ [ -58.373718, -34.605615 ], [ -58.37379, -34.604464 ] ], [ [ -58.372328, -34.60551 ], [ -58.373718, -34.605615 ] ], [ [ -58.372193, -34.591762 ], [ -58.373542, -34.591004 ] ], [ [ -58.36662, -34.624027 ], [ -58.372674, -34.624323 ] ], [ [ -58.372421, -34.589063 ], [ -58.371461, -34.587957 ] ], [ [ -58.370935, -34.605401 ], [ -58.372328, -34.60551 ] ], [ [ -58.372328, -34.60551 ], [ -58.372392, -34.604356 ], [ -58.371016, -34.604247 ] ], [ [ -58.369517, -34.59832 ], [ -58.372193, -34.591762 ] ], [ [ -58.370872, -34.606563 ], [ -58.370853, -34.60884 ], [ -58.37213, -34.608929 ] ], [ [ -58.37213, -34.608929 ], [ -58.371792, -34.614813 ], [ -58.369472, -34.614771 ] ], [ [ -58.366859, -34.614576 ], [ -58.366739, -34.615624 ], [ -58.371721, -34.615978 ] ], [ [ -58.371461, -34.587957 ], [ -58.371705, -34.587219 ], [ -58.369039, -34.584086 ] ], [ [ -58.369546, -34.589432 ], [ -58.368968, -34.588732 ], [ -58.371461, -34.587957 ] ], [ [ -58.37016, -34.604192 ], [ -58.371016, -34.604247 ] ], [ [ -58.370935, -34.605401 ], [ -58.371016, -34.604247 ] ], [ [ -58.368052, -34.604055 ], [ -58.367925, -34.605173 ], [ -58.370935, -34.605401 ] ], [ [ -58.369654, -34.608835 ], [ -58.370777, -34.608835 ], [ -58.370657, -34.610059 ] ], [ [ -58.369586, -34.594215 ], [ -58.37056, -34.591483 ], [ -58.369525, -34.590232 ], [ -58.369546, -34.589432 ] ], [ [ -58.369546, -34.589432 ], [ -58.366823, -34.588883 ], [ -58.365883, -34.58836 ], [ -58.36562, -34.586835 ], [ -58.366309, -34.585513 ] ], [ [ -58.362254, -34.624051 ], [ -58.358982, -34.620753 ] ] ] } },
{ "type": "Feature", "properties": { "tooltip_bi": null, "lado_ciclo": null, "ciclo_obse": null, "Fibra_Op_2": "CAO", "recorrid_x": null, "BARRIO_PAR": "PALERMO", "COM_IMPAR": "14", "red_tp": null, "nomanter": null, "red_jerarq": "VÍA LOCAL", "Fibra_Opti": "SI", "COM_PAR": "14", "id_street": "2777", "COMUNA": "14", "cod_sent": "1", "nomoficial": "ARCOS", "codigo": "1102", "alt_izqini": "1302", "BARRIO_IMP": "PALERMO", "tipo_c": "CALLE", "alt_derini": "1301", "alt_derfin": "1399", "bicisenda": "-", "nom_mapa": "ARCOS", "observa": null, "long": "89.319999999999993", "BARRIO": "PALERMO", "alt_izqfin": "1400", "sentido": "CRECIENTE", "longitud_m": 9504.2032452481799 }, "geometry": { "type": "MultiLineString", "coordinates": [ [ [ -58.446498, -34.569161 ], [ -58.445624, -34.56819 ], [ -58.447797, -34.566679 ] ], [ [ -58.434389, -34.575353 ], [ -58.440746, -34.572106 ] ], [ [ -58.426533, -34.578168 ], [ -58.431561, -34.576609 ], [ -58.434142, -34.575463 ] ], [ [ -58.431221, -34.593539 ], [ -58.428035, -34.591428 ] ], [ [ -58.415954, -34.585152 ], [ -58.417433, -34.586077 ], [ -58.426196, -34.579729 ], [ -58.427998, -34.581787 ], [ -58.429012, -34.580954 ], [ -58.426533, -34.578168 ] ], [ [ -58.415954, -34.585152 ], [ -58.425953, -34.57831 ], [ -58.426533, -34.578168 ] ], [ [ -58.417265, -34.597825 ], [ -58.416999, -34.596646 ] ], [ [ -58.415954, -34.585152 ], [ -58.411099, -34.581978 ] ], [ [ -58.410084, -34.589057 ], [ -58.415954, -34.585152 ] ], [ [ -58.411099, -34.581978 ], [ -58.414228, -34.581749 ], [ -58.413608, -34.580814 ] ], [ [ -58.411099, -34.581978 ], [ -58.4104, -34.580826 ], [ -58.408554, -34.580526 ], [ -58.404875, -34.57655 ], [ -58.405804, -34.575794 ], [ -58.40358, -34.573312 ], [ -58.402787, -34.574276 ] ], [ [ -58.398113, -34.580702 ], [ -58.396927, -34.579036 ], [ -58.398775, -34.577617 ], [ -58.401501, -34.57614 ] ] ] } },
{ "type": "Feature", "properties": { "tooltip_bi": "Bicisenda preexistente", "lado_ciclo": null, "ciclo_obse": null, "Fibra_Op_2": "CAO", "recorrid_x": null, "BARRIO_PAR": "NUÑEZ", "COM_IMPAR": "13", "red_tp": null, "nomanter": null, "red_jerarq": "VÍA LOCAL", "Fibra_Opti": "SI", "COM_PAR": "13", "id_street": "180", "COMUNA": "13", "cod_sent": "-1", "nomoficial": "RIVADAVIA MARTIN, COMODORO", "codigo": "19047", "alt_izqini": "0", "BARRIO_IMP": "NUÑEZ", "tipo_c": "CALLE", "alt_derini": "1601", "alt_derfin": "1699", "bicisenda": "Bicisendas preexistentes", "nom_mapa": "COMODORO MARTIN RIVADAVIA", "observa": null, "long": "108.170000000000002", "BARRIO": "NUÑEZ", "alt_izqfin": "0", "sentido": "DECRECIENTE", "longitud_m": 14508.416503971646 }, "geometry": { "type": "MultiLineString", "coordinates": [ [ [ -58.471008, -34.550525 ], [ -58.474436, -34.552422 ] ], [ [ -58.469303, -34.549582 ], [ -58.471008, -34.550525 ] ], [ [ -58.461064, -34.561801 ], [ -58.466154, -34.555863 ], [ -58.468061, -34.556877 ], [ -58.470704, -34.55409 ], [ -58.468959, -34.553161 ], [ -58.471008, -34.550525 ] ], [ [ -58.466493, -34.547405 ], [ -58.468668, -34.548348 ] ], [ [ -58.466304, -34.536688 ], [ -58.466808, -34.535843 ] ], [ [ -58.464907, -34.544741 ], [ -58.465563, -34.546483 ], [ -58.466493, -34.547405 ] ], [ [ -58.463257, -34.55182 ], [ -58.466493, -34.547405 ] ], [ [ -58.465027, -34.536035 ], [ -58.466304, -34.536688 ] ], [ [ -58.463365, -34.541371 ], [ -58.466304, -34.536688 ] ], [ [ -58.461064, -34.561801 ], [ -58.462763, -34.561395 ], [ -58.465099, -34.562778 ] ], [ [ -58.464487, -34.543963 ], [ -58.464654, -34.544754 ] ], [ [ -58.461984, -34.542688 ], [ -58.464487, -34.543963 ] ], [ [ -58.463182, -34.541585 ], [ -58.464487, -34.543963 ] ], [ [ -58.464379, -34.543307 ], [ -58.464487, -34.543963 ] ], [ [ -58.463365, -34.541371 ], [ -58.464379, -34.543307 ] ], [ [ -58.464379, -34.543307 ], [ -58.464169, -34.541846 ] ], [ [ -58.463182, -34.541585 ], [ -58.463365, -34.541371 ] ], [ [ -58.461984, -34.542688 ], [ -58.463182, -34.541585 ] ], [ [ -58.455741, -34.548039 ], [ -58.459796, -34.54472 ], [ -58.461984, -34.542688 ] ], [ [ -58.454678, -34.559412 ], [ -58.460274, -34.562719 ], [ -58.461064, -34.561801 ] ], [ [ -58.454678, -34.559412 ], [ -58.457101, -34.556614 ] ], [ [ -58.454095, -34.548602 ], [ -58.455741, -34.548039 ] ], [ [ -58.451415, -34.563197 ], [ -58.454678, -34.559412 ] ], [ [ -58.452848, -34.547257 ], [ -58.454095, -34.548602 ] ], [ [ -58.451415, -34.563197 ], [ -58.453243, -34.564279 ] ], [ [ -58.449624, -34.543328 ], [ -58.452848, -34.547257 ] ], [ [ -58.446872, -34.557637 ], [ -58.450914, -34.552943 ], [ -58.452123, -34.55366 ] ], [ [ -58.45061, -34.564136 ], [ -58.451415, -34.563197 ] ], [ [ -58.445529, -34.561142 ], [ -58.45061, -34.564136 ] ], [ [ -58.447797, -34.566679 ], [ -58.449166, -34.56583 ], [ -58.45061, -34.564136 ] ], [ [ -58.4436, -34.55568 ], [ -58.446872, -34.557637 ] ], [ [ -58.44529, -34.561028 ], [ -58.444535, -34.560556 ], [ -58.446872, -34.557637 ] ], [ [ -58.440746, -34.572106 ], [ -58.446498, -34.569161 ] ], [ [ -58.4436, -34.55568 ], [ -58.444412, -34.554736 ] ], [ [ -58.442479, -34.555009 ], [ -58.4436, -34.55568 ] ], [ [ -58.442479, -34.555009 ], [ -58.443287, -34.554065 ] ], [ [ -58.442479, -34.555009 ], [ -58.43911, -34.553011 ], [ -58.44314, -34.548336 ] ] ] } },
{ "type": "Feature", "properties": { "tooltip_bi": null, "lado_ciclo": null, "ciclo_obse": null, "Fibra_Op_2": "CAO", "recorrid_x": null, "BARRIO_PAR": "FLORES", "COM_IMPAR": "11", "red_tp": null, "nomanter": "GAUNA", "red_jerarq": "VÍA DISTRIBUIDORA PRINCIPAL", "Fibra_Opti": "SI", "COM_PAR": "7", "id_street": "13384", "COMUNA": "0", "cod_sent": "1", "nomoficial": "GAONA AV.", "codigo": "7025", "alt_izqini": "2702", "BARRIO_IMP": "VILLA GRAL. MITRE", "tipo_c": "AVENIDA", "alt_derini": "2701", "alt_derfin": "2799", "bicisenda": "-", "nom_mapa": "AV. GAONA", "observa": null, "long": "125.189999999999998", "BARRIO": null, "alt_izqfin": "2800", "sentido": "CRECIENTE", "longitud_m": 13291.256514243283 }, "geometry": { "type": "MultiLineString", "coordinates": [ [ [ -58.468797, -34.617644 ], [ -58.475498, -34.621179 ], [ -58.477807, -34.622383 ] ], [ [ -58.472974, -34.630143 ], [ -58.471745, -34.632886 ] ], [ [ -58.467692, -34.631746 ], [ -58.471745, -34.632886 ] ], [ [ -58.471745, -34.632886 ], [ -58.472874, -34.63315 ], [ -58.471756, -34.635644 ], [ -58.470375, -34.638786 ], [ -58.465226, -34.637433 ], [ -58.463972, -34.639871 ] ], [ [ -58.465991, -34.622136 ], [ -58.471219, -34.623763 ] ], [ [ -58.464466, -34.615761 ], [ -58.467961, -34.617269 ], [ -58.468797, -34.617644 ] ], [ [ -58.465991, -34.622136 ], [ -58.468797, -34.617644 ] ], [ [ -58.468304, -34.630363 ], [ -58.467692, -34.631746 ] ], [ [ -58.467692, -34.631746 ], [ -58.466682, -34.634057 ], [ -58.467963, -34.634457 ] ], [ [ -58.463706, -34.626406 ], [ -58.467939, -34.627639 ] ], [ [ -58.463594, -34.630498 ], [ -58.467692, -34.631746 ] ], [ [ -58.463706, -34.626406 ], [ -58.464655, -34.624204 ], [ -58.465991, -34.622136 ] ], [ [ -58.463972, -34.639871 ], [ -58.465917, -34.64111 ] ], [ [ -58.463176, -34.627647 ], [ -58.464644, -34.628028 ] ], [ [ -58.464518, -34.649919 ], [ -58.461761, -34.650448 ], [ -58.457113, -34.654049 ] ], [ [ -58.462586, -34.643857 ], [ -58.464119, -34.645386 ] ], [ [ -58.462752, -34.639021 ], [ -58.463972, -34.639871 ] ], [ [ -58.463176, -34.627647 ], [ -58.463706, -34.626406 ] ], [ [ -58.462238, -34.630088 ], [ -58.463594, -34.630498 ] ], [ [ -58.463594, -34.630498 ], [ -58.463105, -34.631674 ] ], [ [ -58.463176, -34.627647 ], [ -58.462238, -34.630088 ] ], [ [ -58.458203, -34.628826 ], [ -58.462238, -34.630088 ] ], [ [ -58.457067, -34.631107 ], [ -58.459544, -34.631891 ], [ -58.460085, -34.630764 ] ], [ [ -58.457138, -34.628482 ], [ -58.458203, -34.628826 ] ], [ [ -58.458203, -34.628826 ], [ -58.457067, -34.631107 ] ], [ [ -58.457838, -34.62713 ], [ -58.457138, -34.628482 ] ], [ [ -58.454516, -34.627633 ], [ -58.457138, -34.628482 ] ], [ [ -58.457067, -34.631107 ], [ -58.455578, -34.634213 ] ], [ [ -58.454631, -34.636189 ], [ -58.455539, -34.636478 ], [ -58.457064, -34.637994 ] ], [ [ -58.455578, -34.634213 ], [ -58.456766, -34.634591 ] ], [ [ -58.455578, -34.634213 ], [ -58.454631, -34.636189 ] ], [ [ -58.4529, -34.634502 ], [ -58.452417, -34.635484 ], [ -58.454631, -34.636189 ] ], [ [ -58.454575, -34.624479 ], [ -58.456115, -34.625092 ], [ -58.454516, -34.627633 ] ], [ [ -58.453438, -34.62678 ], [ -58.454516, -34.627633 ] ], [ [ -58.454516, -34.627633 ], [ -58.453998, -34.628603 ] ], [ [ -58.442926, -34.629351 ], [ -58.444478, -34.629582 ], [ -58.448223, -34.630142 ], [ -58.44753, -34.631646 ] ] ] } },
{ "type": "Feature", "properties": { "tooltip_bi": null, "lado_ciclo": null, "ciclo_obse": null, "Fibra_Op_2": "CAO", "recorrid_x": null, "BARRIO_PAR": "VILLA LURO", "COM_IMPAR": "10", "red_tp": null, "nomanter": "UNION", "red_jerarq": "VÍA LOCAL", "Fibra_Opti": "SI", "COM_PAR": "10", "id_street": "27811", "COMUNA": "10", "cod_sent": "-1", "nomoficial": "FALCON, RAMON L.,CNEL. AV.", "codigo": "6006", "alt_izqini": "5402", "BARRIO_IMP": "VILLA LURO", "tipo_c": "AVENIDA", "alt_derini": "0", "alt_derfin": "0", "bicisenda": "-", "nom_mapa": "AV.CORONEL RAMON L. FALCON", "observa": null, "long": "117.200000000000003", "BARRIO": "VILLA LURO", "alt_izqfin": "5500", "sentido": "DECRECIENTE", "longitud_m": 12872.199937897682 }, "geometry": { "type": "MultiLineString", "coordinates": [ [ [ -58.529337, -34.610982 ], [ -58.527346, -34.612392 ], [ -58.526535, -34.612986 ], [ -58.529678, -34.615426 ], [ -58.530195, -34.615029 ] ], [ [ -58.523871, -34.631411 ], [ -58.524975, -34.631646 ] ], [ [ -58.520166, -34.62613 ], [ -58.523362, -34.626801 ], [ -58.522938, -34.628185 ], [ -58.524147, -34.628437 ], [ -58.524325, -34.629957 ], [ -58.523871, -34.631411 ] ], [ [ -58.523036, -34.634161 ], [ -58.523871, -34.631411 ] ], [ [ -58.52012, -34.617795 ], [ -58.521956, -34.616388 ] ], [ [ -58.515673, -34.626124 ], [ -58.516723, -34.625303 ], [ -58.517503, -34.625992 ], [ -58.518568, -34.625167 ], [ -58.520166, -34.62613 ] ], [ [ -58.511666, -34.633113 ], [ -58.516942, -34.629042 ], [ -58.520166, -34.62613 ] ], [ [ -58.511666, -34.633113 ], [ -58.512621, -34.63396 ] ], [ [ -58.510103, -34.63328 ], [ -58.511666, -34.633113 ] ], [ [ -58.50844, -34.639818 ], [ -58.509787, -34.640077 ] ], [ [ -58.508699, -34.638881 ], [ -58.50844, -34.639818 ] ], [ [ -58.503018, -34.638807 ], [ -58.50844, -34.639818 ] ], [ [ -58.502427, -34.618021 ], [ -58.507754, -34.62079 ], [ -58.509022, -34.621967 ], [ -58.508055, -34.62271 ] ], [ [ -58.502427, -34.618021 ], [ -58.507053, -34.613187 ] ], [ [ -58.503018, -34.638807 ], [ -58.505705, -34.639281 ] ], [ [ -58.484371, -34.635832 ], [ -58.49227, -34.637782 ], [ -58.502593, -34.639139 ], [ -58.503018, -34.638807 ] ], [ [ -58.5012, -34.617374 ], [ -58.502427, -34.618021 ] ], [ [ -58.479786, -34.634761 ], [ -58.484371, -34.635832 ] ], [ [ -58.484371, -34.635832 ], [ -58.483436, -34.638322 ] ], [ [ -58.482311, -34.629157 ], [ -58.483691, -34.629502 ], [ -58.484242, -34.628306 ] ], [ [ -58.478656, -34.625784 ], [ -58.477638, -34.627994 ], [ -58.482311, -34.629157 ] ], [ [ -58.47893, -34.633108 ], [ -58.479594, -34.631651 ], [ -58.480968, -34.632073 ], [ -58.482311, -34.629157 ] ], [ [ -58.479786, -34.634761 ], [ -58.480795, -34.632487 ] ], [ [ -58.47695, -34.624217 ], [ -58.477807, -34.622383 ], [ -58.48074, -34.623779 ] ], [ [ -58.472874, -34.63315 ], [ -58.479786, -34.634761 ] ], [ [ -58.471756, -34.635644 ], [ -58.474914, -34.636769 ] ] ] } },
{ "type": "Feature", "properties": { "tooltip_bi": null, "lado_ciclo": null, "ciclo_obse": null, "Fibra_Op_2": "CAO", "recorrid_x": null, "BARRIO_PAR": "LINIERS", "COM_IMPAR": "9", "red_tp": null, "nomanter": "JONTE", "red_jerarq": "VÍA DISTRIBUIDORA COMPLEMENTARIA", "Fibra_Opti": "SI", "COM_PAR": "9", "id_street": "18897", "COMUNA": "9", "cod_sent": "-1", "nomoficial": "ALVAREZ JONTE AV.", "codigo": "1056", "alt_izqini": "6502", "BARRIO_IMP": "LINIERS", "tipo_c": "AVENIDA", "alt_derini": "6501", "alt_derfin": "6599", "bicisenda": "-", "nom_mapa": "AV.ALVAREZ JONTE", "observa": null, "long": "94.939999999999998", "BARRIO": "LINIERS", "alt_izqfin": "6600", "sentido": "DECRECIENTE", "longitud_m": 12095.213737978005 }, "geometry": { "type": "MultiLineString", "coordinates": [ [ [ -58.529014, -34.640488 ], [ -58.529942, -34.640559 ] ], [ [ -58.524133, -34.649995 ], [ -58.529329, -34.65015 ] ], [ [ -58.529092, -34.639512 ], [ -58.529014, -34.640488 ] ], [ [ -58.525004, -34.640121 ], [ -58.529014, -34.640488 ] ], [ [ -58.524768, -34.6428 ], [ -58.528878, -34.642979 ] ], [ [ -58.524133, -34.649995 ], [ -58.527804, -34.653433 ] ], [ [ -58.525098, -34.639049 ], [ -58.525427, -34.638305 ], [ -58.527168, -34.638344 ] ], [ [ -58.525098, -34.639049 ], [ -58.522561, -34.638852 ], [ -58.522357, -34.640229 ] ], [ [ -58.525098, -34.639049 ], [ -58.525004, -34.640121 ] ], [ [ -58.525004, -34.640121 ], [ -58.524768, -34.6428 ] ], [ [ -58.522357, -34.640229 ], [ -58.525004, -34.640121 ] ], [ [ -58.524768, -34.6428 ], [ -58.524602, -34.644678 ] ], [ [ -58.511152, -34.640319 ], [ -58.512895, -34.641883 ], [ -58.514023, -34.640987 ], [ -58.520265, -34.646363 ], [ -58.524133, -34.649995 ] ], [ [ -58.52265, -34.638023 ], [ -58.522871, -34.635947 ], [ -58.522322, -34.63519 ], [ -58.523036, -34.634161 ] ], [ [ -58.521157, -34.640279 ], [ -58.522357, -34.640229 ] ], [ [ -58.521157, -34.640279 ], [ -58.520995, -34.641386 ] ], [ [ -58.512698, -34.64043 ], [ -58.51458, -34.640544 ], [ -58.521157, -34.640279 ] ], [ [ -58.511152, -34.640319 ], [ -58.51264, -34.640426 ] ], [ [ -58.511409, -34.639345 ], [ -58.511152, -34.640319 ] ], [ [ -58.509787, -34.640077 ], [ -58.511152, -34.640319 ] ], [ [ -58.500496, -34.667542 ], [ -58.5013, -34.668204 ], [ -58.500096, -34.669206 ], [ -58.500882, -34.669873 ] ], [ [ -58.476072, -34.638933 ], [ -58.47467, -34.640042 ] ], [ [ -58.473616, -34.639755 ], [ -58.47467, -34.640042 ] ], [ [ -58.47467, -34.640042 ], [ -58.478284, -34.642602 ], [ -58.476058, -34.644363 ], [ -58.473686, -34.642686 ], [ -58.4689, -34.646479 ], [ -58.467646, -34.645594 ] ], [ [ -58.472555, -34.63944 ], [ -58.473616, -34.639755 ] ], [ [ -58.473616, -34.639755 ], [ -58.473553, -34.640923 ] ], [ [ -58.472992, -34.638445 ], [ -58.472555, -34.63944 ] ], [ [ -58.470375, -34.638786 ], [ -58.472555, -34.63944 ] ], [ [ -58.467646, -34.645594 ], [ -58.467247, -34.646244 ], [ -58.469565, -34.64948 ], [ -58.470816, -34.650621 ], [ -58.468345, -34.652563 ] ], [ [ -58.464119, -34.645386 ], [ -58.468145, -34.648868 ] ], [ [ -58.467686, -34.64404 ], [ -58.466571, -34.644919 ], [ -58.467646, -34.645594 ] ], [ [ -58.467585, -34.653133 ], [ -58.465065, -34.655173 ] ] ] } }
]
}
