{
"type": "FeatureCollection",
"name": "zonas_aph",
"crs": { "type": "name", "properties": { "name": "urn:ogc:def:crs:OGC:1.3:CRS84" } },
"features": [
{ "type": "Feature", "properties": { "ZONA": "1", "OBSERVACIO": "ZONA APH" }, "geometry": { "type": "Polygon", "coordinates": [ [ [ -58.387327, -34.585683 ], [ -58.38855, -34.585401 ], [ -58.390113, -34.588071 ], [ -58.395978, -34.593617 ], [ -58.395192, -34.5975 ], [ -58.395137, -34.605793 ], [ -58.390251, -34.605411 ], [ -58.391374, -34.600046 ], [ -58.389222, -34.600004 ], [ -58.389371, -34.59693 ], [ -58.391573, -34.596972 ], [ -58.391869, -34.593776 ], [ -58.387812, -34.590538 ], [ -58.384434, -34.593205 ], [ -58.381893, -34.590372 ], [ -58.385662, -34.588231 ], [ -58.387327, -34.585683 ] ] ] } },
{ "type": "Feature", "properties": { "ZONA": "2", "OBSERVACIO": "ZONA APH" }, "geometry": { "type": "Polygon", "coordinates": [ [ [ -58.376093, -34.61737 ], [ -58.375659, -34.623539 ], [ -58.374016, -34.626562 ], [ -58.374652, -34.626602 ], [ -58.376731, -34.627757 ], [ -58.375494, -34.629202 ], [ -58.371797, -34.631 ], [ -58.367808, -34.631613 ], [ -58.369022, -34.628439 ], [ -58.366334, -34.625312 ], [ -58.367139, -34.616999 ], [ -58.376093, -34.61737 ] ] ] } },
{ "type": "Feature", "properties": { "ZONA": "4", "OBSERVACIO": "ZONA APH" }, "geometry": { "type": "Polygon", "coordinates": [ [ [ -58.376829, -34.603384 ], [ -58.376044, -34.617289 ], [ -58.367408, -34.616939 ], [ -58.368907, -34.611034 ], [ -58.369981, -34.602954 ], [ -58.376829, -34.603384 ] ] ] } },
{ "type": "Feature", "properties": { "ZONA": "3", "OBSERVACIO": "ZONA APH" }, "geometry": { "type": "Polygon", "coordinates": [ [ [ -58.370318, -34.59623 ], [ -58.37179, -34.592064 ], [ -58.368909, -34.588057 ], [ -58.371844, -34.587614 ], [ -58.37541, -34.59235 ], [ -58.380399, -34.592758 ], [ -58.377313, -34.596639 ], [ -58.376964, -34.603354 ], [ -58.369919, -34.602904 ], [ -58.370118, -34.600436 ], [ -58.371786, -34.595947 ], [ -58.370318, -34.59623 ] ] ] } },
{ "type": "Feature", "properties": { "ZONA": "5", "OBSERVACIO": "ZONA APH" }, "geometry": { "type": "Polygon", "coordinates": [ [ [ -58.393706, -34.605782 ], [ -58.394887, -34.61182 ], [ -58.376418, -34.610676 ], [ -58.376567, -34.608633 ], [ -58.376667, -34.606812 ], [ -58.384374, -34.605078 ], [ -58.386649, -34.605221 ], [ -58.386575, -34.606313 ], [ -58.389094, -34.606457 ], [ -58.389058, -34.605395 ], [ -58.393706, -34.605782 ] ] ] } },
{ "type": "Feature", "properties": { "ZONA": "6", "OBSERVACIO": "ZONA APH" }, "geometry": { "type": "Polygon", "coordinates": [ [ [ -58.375245, -34.636172 ], [ -58.374753, -34.638816 ], [ -58.370007, -34.638174 ], [ -58.370478, -34.63553 ], [ -58.375245, -34.636172 ] ] ] } },
{ "type": "Feature", "properties": { "ZONA": "9", "OBSERVACIO": "ZONA APH" }, "geometry": { "type": "Polygon", "coordinates": [ [ [ -58.39934, -34.582811 ], [ -58.395961, -34.578045 ], [ -58.402284, -34.573231 ], [ -58.406556, -34.577794 ], [ -58.404552, -34.581455 ], [ -58.404539, -34.583452 ], [ -58.403941, -34.583794 ], [ -58.402224, -34.582021 ], [ -58.39934, -34.582811 ] ] ] } },
{ "type": "Feature", "properties": { "ZONA": "10", "OBSERVACIO": "ZONA APH" }, "geometry": { "type": "Polygon", "coordinates": [ [ [ -58.410253, -34.57866 ], [ -58.409252, -34.578983 ], [ -58.406709, -34.575725 ], [ -58.404406, -34.571586 ], [ -58.406323, -34.567502 ], [ -58.424556, -34.555562 ], [ -58.435431, -34.551678 ], [ -58.44576, -34.559093 ], [ -58.443388, -34.561828 ], [ -58.44141, -34.560676 ], [ -58.439495, -34.561953 ], [ -58.440474, -34.562979 ], [ -58.426702, -34.571648 ], [ -58.424592, -34.572259 ], [ -58.410253, -34.57866 ] ] ] } },
{ "type": "Feature", "properties": { "ZONA": "11", "OBSERVACIO": "ZONA APH" }, "geometry": { "type": "Polygon", "coordinates": [ [ [ -58.480994, -34.564959 ], [ -58.471794, -34.566525 ], [ -58.466378, -34.572391 ], [ -58.450544, -34.561883 ], [ -58.450632, -34.556593 ], [ -58.465095, -34.566364 ], [ -58.473555, -34.561217 ], [ -58.480994, -34.564959 ] ] ] } },
{ "type": "Feature", "properties": { "ZONA": "15", "OBSERVACIO": "ZONA APH" }, "geometry": { "type": "Polygon", "coordinates": [ [ [ -58.433276, -34.635507 ], [ -58.43304, -34.627086 ], [ -58.436762, -34.626673 ], [ -58.433276, -34.635507 ] ] ] } },
{ "type": "Feature", "properties": { "ZONA": "12", "OBSERVACIO": "ZONA APH" }, "geometry": { "type": "Polygon", "coordinates": [ [ [ -58.488231, -34.596661 ], [ -58.482715, -34.597706 ], [ -58.485521, -34.594251 ], [ -58.488231, -34.596661 ] ] ] } },
{ "type": "Feature", "properties": { "ZONA": "13", "OBSERVACIO": "ZONA APH" }, "geometry": { "type": "Polygon", "coordinates": [ [ [ -58.503735, -34.600184 ], [ -58.508074, -34.595252 ], [ -58.518999, -34.598621 ], [ -58.515044, -34.607044 ], [ -58.503735, -34.600184 ] ] ] } },
{ "type": "Feature", "properties": { "ZONA": "16", "OBSERVACIO": "ZONA APH" }, "geometry": { "type": "Polygon", "coordinates": [ [ [ -58.426722, -34.638528 ], [ -58.426101, -34.64164 ], [ -58.421681, -34.641081 ], [ -58.422608, -34.637861 ], [ -58.426722, -34.638528 ] ] ] } },
{ "type": "Feature", "properties": { "ZONA": "14", "OBSERVACIO": "ZONA APH" }, "geometry": { "type": "Polygon", "coordinates": [ [ [ -58.487373, -34.639313 ], [ -58.485415, -34.645868 ], [ -58.477263, -34.652247 ], [ -58.470992, -34.646355 ], [ -58.48156, -34.637839 ], [ -58.487373, -34.639313 ] ] ] } },
{ "type": "Feature", "properties": { "ZONA": "17", "OBSERVACIO": "ZONA APH" }, "geometry": { "type": "Polygon", "coordinates": [ [ [ -58.419462, -34.65924 ], [ -58.414259, -34.658374 ], [ -58.41154, -34.652534 ], [ -58.414024, -34.650196 ], [ -58.416524, -34.656072 ], [ -58.419462, -34.65924 ] ] ] } },
{ "type": "Feature", "properties": { "ZONA": "18", "OBSERVACIO": "ZONA APH" }, "geometry": { "type": "Polygon", "coordinates": [ [ [ -58.392067, -34.649511 ], [ -58.389757, -34.651938 ], [ -58.381571, -34.650746 ], [ -58.381957, -34.656846 ], [ -58.374644, -34.653692 ], [ -58.379182, -34.644681 ], [ -58.382488, -34.648731 ], [ -58.392067, -34.649511 ] ] ] } },
{ "type": "Feature", "properties": { "ZONA": "14", "OBSERVACIO": "ZONA APH" }, "geometry": { "type": "Polygon", "coordinates": [ [ [ -58.502198, -34.661495 ], [ -58.499199, -34.663781 ], [ -58.498622, -34.663317 ], [ -58.501577, -34.661 ], [ -58.502198, -34.661495 ] ] ] } },
{ "type": "Feature", "properties": { "ZONA": "8", "OBSERVACIO": "ZONA APH" }, "geometry": { "type": "Polygon", "coordinates": [ [ [ -58.411795, -34.600841 ], [ -58.413903, -34.605268 ], [ -58.408594, -34.60478 ], [ -58.411795, -34.600841 ] ] ] } },
{ "type": "Feature", "properties": { "ZONA": "7", "OBSERVACIO": "ZONA APH" }, "geometry": { "type": "Polygon", "coordinates": [ [ [ -58.381272, -34.617351 ], [ -58.383448, -34.617406 ], [ -58.383392, -34.618918 ], [ -58.381172, -34.618835 ], [ -58.381272, -34.617351 ] ] ] } },
{ "type": "Feature", "properties": { "ZONA": "24", "OBSERVACIO": "ZONAS PROPUESTAS" }, "geometry": { "type": "Polygon", "coordinates": [ [ [ -58.46907, -34.628628 ], [ -58.466682, -34.634057 ], [ -58.458229, -34.631477 ], [ -58.462218, -34.623362 ], [ -58.46907, -34.628628 ] ] ] } },
{ "type": "Feature", "properties": { "ZONA": "23", "OBSERVACIO": "ZONAS PROPUESTAS" }, "geometry": { "type": "Polygon", "coordinates": [ [ [ -58.43229, -34.595729 ], [ -58.43729, -34.601409 ], [ -58.424105, -34.602862 ], [ -58.43229, -34.595729 ] ] ] } },
{ "type": "Feature", "properties": { "ZONA": "20", "OBSERVACIO": "ZONAS PROPUESTAS" }, "geometry": { "type": "Polygon", "coordinates": [ [ [ -58.453314, -34.565543 ], [ -58.45722, -34.567831 ], [ -58.442422, -34.573798 ], [ -58.440746, -34.572106 ], [ -58.440869, -34.570676 ], [ -58.446106, -34.567815 ], [ -58.447797, -34.566679 ], [ -58.449472, -34.565471 ], [ -58.45061, -34.564136 ], [ -58.453314, -34.565543 ] ] ] } },
{ "type": "Feature", "properties": { "ZONA": "22", "OBSERVACIO": "ZONAS PROPUESTAS" }, "geometry": { "type": "Polygon", "coordinates": [ [ [ -58.391678, -34.616878 ], [ -58.391626, -34.620223 ], [ -58.391557, -34.621559 ], [ -58.391492, -34.622733 ], [ -58.391332, -34.625227 ], [ -58.391173, -34.627252 ], [ -58.388299, -34.627163 ], [ -58.385732, -34.627062 ], [ -58.38134, -34.630739 ], [ -58.381436, -34.627803 ], [ -58.379616, -34.627779 ], [ -58.381426, -34.624631 ], [ -58.381431, -34.622162 ], [ -58.381446, -34.619754 ], [ -58.384348, -34.619804 ], [ -58.384401, -34.61664 ], [ -58.391678, -34.616878 ] ] ] } },
{ "type": "Feature", "properties": { "ZONA": "21", "OBSERVACIO": "ZONAS PROPUESTAS" }, "geometry": { "type": "Polygon", "coordinates": [ [ [ -58.467251, -34.552263 ], [ -58.461956, -34.562331 ], [ -58.45459, -34.557956 ], [ -58.461774, -34.550015 ], [ -58.467251, -34.552263 ] ] ] } },
{ "type": "Feature", "properties": { "ZONA": "19", "OBSERVACIO": "ZONAS PROPUESTAS" }, "geometry": { "type": "Polygon", "coordinates": [ [ [ -58.399903, -34.595117 ], [ -58.399153, -34.593352 ], [ -58.401489, -34.592538 ], [ -58.40279, -34.592096 ], [ -58.407368, -34.588895 ], [ -58.408183, -34.588248 ], [ -58.409031, -34.587559 ], [ -58.414279, -34.584072 ], [ -58.425255, -34.578663 ], [ -58.426196, -34.579729 ], [ -58.427074, -34.580732 ], [ -58.420959, -34.585308 ], [ -58.419888, -34.586103 ], [ -58.418785, -34.586922 ], [ -58.413915, -34.590504 ], [ -58.413174, -34.591052 ], [ -58.41233, -34.591676 ], [ -58.412393, -34.59175 ], [ -58.411615, -34.592207 ], [ -58.411123, -34.592471 ], [ -58.408376, -34.593083 ], [ -58.40418, -34.595234 ], [ -58.404641, -34.596189 ], [ -58.405181, -34.597232 ], [ -58.405589, -34.59804 ], [ -58.406314, -34.599657 ], [ -58.407815, -34.604257 ], [ -58.400839, -34.604675 ], [ -58.400904, -34.60221 ], [ -58.40098, -34.601162 ], [ -58.401032, -34.600235 ], [ -58.401072, -34.599484 ], [ -58.399903, -34.595117 ] ] ] } },
{ "type": "Feature", "properties": { "ZONA": "POLIGONO 16", "OBSERVACIO": "POLÍGONOS PROTOCOLO" }, "geometry": { "type": "Polygon", "coordinates": [ [ [ -58.391519, -34.622702 ], [ -58.390338, -34.634179 ], [ -58.383408, -34.632272 ], [ -58.381369, -34.630921 ], [ -58.380141, -34.633023 ], [ -58.378639, -34.630462 ], [ -58.379025, -34.629332 ], [ -58.374594, -34.626724 ], [ -58.371064, -34.626688 ], [ -58.370554, -34.629452 ], [ -58.368028, -34.62713 ], [ -58.367835, -34.62524 ], [ -58.363125, -34.625139 ], [ -58.362679, -34.624675 ], [ -58.3643, -34.623598 ], [ -58.365952, -34.621471 ], [ -58.391519, -34.622702 ] ] ] } },
{ "type": "Feature", "properties": { "ZONA": "POLIGONO 15", "OBSERVACIO": "POLÍGONOS PROTOCOLO" }, "geometry": { "type": "Polygon", "coordinates": [ [ [ -58.391572, -34.614791 ], [ -58.391465, -34.622764 ], [ -58.368414, -34.621691 ], [ -58.369288, -34.613542 ], [ -58.391572, -34.614791 ] ] ] } },
{ "type": "Feature", "properties": { "ZONA": "POLIGONO 14", "OBSERVACIO": "POLÍGONOS PROTOCOLO" }, "geometry": { "type": "Polygon", "coordinates": [ [ [ -58.3919583, -34.6079828 ], [ -58.391572, -34.614791 ], [ -58.369258, -34.613607 ], [ -58.369482, -34.609069 ], [ -58.369036, -34.608851 ], [ -58.3685804, -34.6082283 ], [ -58.368572, -34.607791 ], [ -58.369133, -34.60665 ], [ -58.369696, -34.606433 ], [ -58.370037, -34.606491 ], [ -58.3807468, -34.6071888 ], [ -58.3811571, -34.607277 ], [ -58.3919583, -34.6079828 ] ] ] } },
{ "type": "Feature", "properties": { "ZONA": "POLIGONO 13", "OBSERVACIO": "POLÍGONOS PROTOCOLO" }, "geometry": { "type": "Polygon", "coordinates": [ [ [ -58.371289, -34.598265 ], [ -58.392763, -34.599621 ], [ -58.3919583, -34.6079828 ], [ -58.3811571, -34.607277 ], [ -58.3807468, -34.6071888 ], [ -58.370018, -34.606544 ], [ -58.37049, -34.599938 ], [ -58.371289, -34.598265 ] ] ] } },
{ "type": "Feature", "properties": { "ZONA": "POLIGONO 12", "OBSERVACIO": "POLÍGONOS PROTOCOLO" }, "geometry": { "type": "Polygon", "coordinates": [ [ [ -58.383633, -34.587362 ], [ -58.388, -34.591709 ], [ -58.387286, -34.594644 ], [ -58.386927, -34.599285 ], [ -58.363173, -34.597836 ], [ -58.364481, -34.593745 ], [ -58.3680371, -34.5902519 ], [ -58.365887, -34.585251 ], [ -58.369014, -34.58358 ], [ -58.375233, -34.592395 ], [ -58.383633, -34.587362 ] ] ] } },
{ "type": "Feature", "properties": { "ZONA": "POLIGONO 17", "OBSERVACIO": "POLÍGONOS PROTOCOLO" }, "geometry": { "type": "Polygon", "coordinates": [ [ [ -58.369133, -34.60665 ], [ -58.368588, -34.608164 ], [ -58.369557, -34.609087 ], [ -58.368527, -34.621555 ], [ -58.36607, -34.621572 ], [ -58.364342, -34.623673 ], [ -58.36269, -34.624759 ], [ -58.355963, -34.617581 ], [ -58.363109, -34.597766 ], [ -58.371289, -34.598265 ], [ -58.37049, -34.599938 ], [ -58.370037, -34.606491 ], [ -58.369133, -34.60665 ] ] ] } },
{ "type": "Feature", "properties": { "ZONA": "POLIGONO 2", "OBSERVACIO": "POLÍGONOS PROTOCOLO" }, "geometry": { "type": "Polygon", "coordinates": [ [ [ -58.393015, -34.599598 ], [ -58.3899535, -34.599474 ], [ -58.386927, -34.599285 ], [ -58.387286, -34.594644 ], [ -58.388, -34.591709 ], [ -58.383633, -34.587362 ], [ -58.388718, -34.5848466 ], [ -58.39051, -34.585436 ], [ -58.3904736, -34.5863241 ], [ -58.390853, -34.587083 ], [ -58.3912539, -34.5874483 ], [ -58.3921512, -34.5877694 ], [ -58.3926194, -34.5886045 ], [ -58.3930876, -34.5892469 ], [ -58.3935948, -34.5895359 ], [ -58.394007, -34.589977 ], [ -58.3933217, -34.5906922 ], [ -58.3926194, -34.5913024 ], [ -58.391902, -34.591885 ], [ -58.392763, -34.592555 ], [ -58.393418, -34.595902 ], [ -58.393015, -34.599598 ] ] ] } },
{ "type": "Feature", "properties": { "ZONA": "POLIGONO 11", "OBSERVACIO": "POLÍGONOS PROTOCOLO" }, "geometry": { "type": "Polygon", "coordinates": [ [ [ -58.423036, -34.571109 ], [ -58.436709, -34.563299 ], [ -58.438814, -34.562543 ], [ -58.441131, -34.5621 ], [ -58.442698, -34.563584 ], [ -58.447974, -34.566761 ], [ -58.44909, -34.567768 ], [ -58.438376, -34.573399 ], [ -58.434219, -34.57556 ], [ -58.426803, -34.577958 ], [ -58.423036, -34.571109 ] ] ] } },
{ "type": "Feature", "properties": { "ZONA": "POLIGONO 10", "OBSERVACIO": "POLÍGONOS PROTOCOLO" }, "geometry": { "type": "Polygon", "coordinates": [ [ [ -58.434219, -34.57556 ], [ -58.4449507, -34.5845624 ], [ -58.438232, -34.588842 ], [ -58.4316227, -34.583142 ], [ -58.426387, -34.578228 ], [ -58.426786, -34.577862 ], [ -58.434219, -34.57556 ] ] ] } },
{ "type": "Feature", "properties": { "ZONA": "POLIGONO 9", "OBSERVACIO": "POLÍGONOS PROTOCOLO" }, "geometry": { "type": "Polygon", "coordinates": [ [ [ -58.431323, -34.593553 ], [ -58.4171825, -34.584323 ], [ -58.426387, -34.5781043 ], [ -58.4321375, -34.5835705 ], [ -58.438232, -34.588842 ], [ -58.431323, -34.593553 ] ] ] } },
{ "type": "Feature", "properties": { "ZONA": "POLIGONO 8", "OBSERVACIO": "POLÍGONOS PROTOCOLO" }, "geometry": { "type": "Polygon", "coordinates": [ [ [ -58.41008, -34.589075 ], [ -58.417176, -34.584182 ], [ -58.431323, -34.593553 ], [ -58.415895, -34.597801 ], [ -58.414414, -34.594039 ], [ -58.41008, -34.589075 ] ] ] } },
{ "type": "Feature", "properties": { "ZONA": "POLIGONO 5", "OBSERVACIO": "POLÍGONOS PROTOCOLO" }, "geometry": { "type": "Polygon", "coordinates": [ [ [ -58.41008, -34.589075 ], [ -58.414393, -34.594092 ], [ -58.415895, -34.597801 ], [ -58.410316, -34.598053 ], [ -58.404533, -34.598 ], [ -58.402419, -34.594392 ], [ -58.41008, -34.589075 ] ] ] } },
{ "type": "Feature", "properties": { "ZONA": "POLIGONO 3", "OBSERVACIO": "POLÍGONOS PROTOCOLO" }, "geometry": { "type": "Polygon", "coordinates": [ [ [ -58.402419, -34.594392 ], [ -58.403748, -34.598361 ], [ -58.402032, -34.599392 ], [ -58.398727, -34.59978 ], [ -58.393015, -34.599598 ], [ -58.393418, -34.595902 ], [ -58.392763, -34.592555 ], [ -58.391902, -34.591885 ], [ -58.397257, -34.587468 ], [ -58.399952, -34.589181 ], [ -58.402419, -34.594392 ] ] ] } },
{ "type": "Feature", "properties": { "ZONA": "POLIGONO 7", "OBSERVACIO": "POLÍGONOS PROTOCOLO" }, "geometry": { "type": "Polygon", "coordinates": [ [ [ -58.423036, -34.571109 ], [ -58.426786, -34.577862 ], [ -58.41008, -34.589075 ], [ -58.408148, -34.586338 ], [ -58.410294, -34.582062 ], [ -58.408148, -34.580101 ], [ -58.407118, -34.578846 ], [ -58.423036, -34.571109 ] ] ] } },
{ "type": "Feature", "properties": { "ZONA": "POLIGONO 6", "OBSERVACIO": "POLÍGONOS PROTOCOLO" }, "geometry": { "type": "Polygon", "coordinates": [ [ [ -58.400606, -34.584481 ], [ -58.396565, -34.578534 ], [ -58.40091, -34.574891 ], [ -58.400618, -34.574499 ], [ -58.406796, -34.569871 ], [ -58.408898, -34.568774 ], [ -58.414993, -34.574995 ], [ -58.407118, -34.578846 ], [ -58.408148, -34.580101 ], [ -58.410294, -34.582062 ], [ -58.408148, -34.586338 ], [ -58.408052, -34.586117 ], [ -58.406029, -34.583325 ], [ -58.401948, -34.583406 ], [ -58.400606, -34.584481 ] ] ] } },
{ "type": "Feature", "properties": { "ZONA": "POLIGONO 1", "OBSERVACIO": "POLÍGONOS PROTOCOLO" }, "geometry": { "type": "Polygon", "coordinates": [ [ [ -58.39051, -34.585436 ], [ -58.400606, -34.584481 ], [ -58.397257, -34.587468 ], [ -58.3935948, -34.5895359 ], [ -58.3930876, -34.5892469 ], [ -58.3926194, -34.5886045 ], [ -58.3921512, -34.5877694 ], [ -58.3912539, -34.5874483 ], [ -58.390853, -34.587083 ], [ -58.3904736, -34.5863241 ], [ -58.39051, -34.585436 ] ] ] } },
{ "type": "Feature", "properties": { "ZONA": "POLIGONO 4", "OBSERVACIO": "POLÍGONOS PROTOCOLO" }, "geometry": { "type": "Polygon", "coordinates": [ [ [ -58.397257, -34.587468 ], [ -58.401989, -34.583447 ], [ -58.406132, -34.583465 ], [ -58.410058, -34.58906 ], [ -58.402419, -34.594392 ], [ -58.399952, -34.589181 ], [ -58.397257, -34.587468 ] ] ] } }
]
}
